{
    "topCitys": [{
        "city": "北京",
        "id":"010",
        "pinyin": "beijing"
    }, {
        "city": "天津",
        "id": "022"
    }],
    "citys": [{
        "label": "北京Beijing010",
        "city": "北京",
        "pinyin": "Beijing",
        "id": "010"
    }, {
        "label": "重庆Chongqing023",
        "city": "重庆",
        "pinyin": "Chongqing",
        "id": "023"
    }, {
        "label": "上海Shanghai021",
        "city": "上海",
        "pinyin": "Shanghai",
        "id": "021"
    }, {
        "label": "天津Tianjin022",
        "city": "天津",
        "pinyin": "Tianjin",
        "id": "022"
    }, {
        "label": "长春Changchun0431",
        "city": "长春",
        "pinyin": "Changchun",
        "id": "0431"
    }, {
        "label": "长沙Changsha0731",
        "city": "长沙",
        "pinyin": "Changsha",
        "id": "0731"
    }, {
        "label": "常州Changzhou0519",
        "city": "常州",
        "pinyin": "Changzhou",
        "id": "0519"
    }, {
        "label": "成都Chengdu028",
        "city": "成都",
        "pinyin": "Chengdu",
        "id": "028"
    }, {
        "label": "大连Dalian0411",
        "city": "大连",
        "pinyin": "Dalian",
        "id": "0411"
    }, {
        "label": "东莞Dongguan0769",
        "city": "东莞",
        "pinyin": "Dongguan",
        "id": "0769"
    }, {
        "label": "佛山Foshan0757",
        "city": "佛山",
        "pinyin": "Foshan",
        "id": "0757"
    }, {
        "label": "福州Fuzhou0591",
        "city": "福州",
        "pinyin": "Fuzhou",
        "id": "0591"
    }, {
        "label": "广州Guangzhou020",
        "city": "广州",
        "pinyin": "Guangzhou",
        "id": "020"
    }, {
        "label": "贵阳Guiyang0851",
        "city": "贵阳",
        "pinyin": "Guiyang",
        "id": "0851"
    }, {
        "label": "哈尔滨Haerbin0451",
        "city": "哈尔滨",
        "pinyin": "Haerbin",
        "id": "0451"
    }, {
        "label": "海口Haikou0898",
        "city": "海口",
        "pinyin": "Haikou",
        "id": "0898"
    }, {
        "label": "邯郸Handan0310",
        "city": "邯郸",
        "pinyin": "Handan",
        "id": "0310"
    }, {
        "label": "杭州Hangzhou0571",
        "city": "杭州",
        "pinyin": "Hangzhou",
        "id": "0571"
    }, {
        "label": "合肥Hefei0551",
        "city": "合肥",
        "pinyin": "Hefei",
        "id": "0551"
    }, {
        "label": "惠州Huizhou0752",
        "city": "惠州",
        "pinyin": "Huizhou",
        "id": "0752"
    }, {
        "label": "焦作Jiaozuo0391",
        "city": "焦作",
        "pinyin": "Jiaozuo",
        "id": "0391"
    }, {
        "label": "嘉兴Jiaxing0573",
        "city": "嘉兴",
        "pinyin": "Jiaxing",
        "id": "0573"
    }, {
        "label": "吉林Jilin0423",
        "city": "吉林",
        "pinyin": "Jilin",
        "id": "0423"
    }, {
        "label": "济南Jinan0531",
        "city": "济南",
        "pinyin": "Jinan",
        "id": "0531"
    }, {
        "label": "昆明Kunming0871",
        "city": "昆明",
        "pinyin": "Kunming",
        "id": "0871"
    }, {
        "label": "兰州Lanzhou0931",
        "city": "兰州",
        "pinyin": "Lanzhou",
        "id": "0931"
    }, {
        "label": "柳州Liuzhou0772",
        "city": "柳州",
        "pinyin": "Liuzhou",
        "id": "0772"
    }, {
        "label": "洛阳Luoyang0379",
        "city": "洛阳",
        "pinyin": "Luoyang",
        "id": "0379"
    }, {
        "label": "南昌Nanchang0791",
        "city": "南昌",
        "pinyin": "Nanchang",
        "id": "0791"
    }, {
        "label": "南京Nanjing025",
        "city": "南京",
        "pinyin": "Nanjing",
        "id": "025"
    }, {
        "label": "南宁Nanning0771",
        "city": "南宁",
        "pinyin": "Nanning",
        "id": "0771"
    }, {
        "label": "南通Nantong0513",
        "city": "南通",
        "pinyin": "Nantong",
        "id": "0513"
    }, {
        "label": "宁波Ningbo0574",
        "city": "宁波",
        "pinyin": "Ningbo",
        "id": "0574"
    }, {
        "label": "青岛Qingdao0532",
        "city": "青岛",
        "pinyin": "Qingdao",
        "id": "0532"
    }, {
        "label": "泉州Quanzhou0595",
        "city": "泉州",
        "pinyin": "Quanzhou",
        "id": "0595"
    }, {
        "label": "沈阳Shenyang024",
        "city": "沈阳",
        "pinyin": "Shenyang",
        "id": "024"
    }, {
        "label": "深圳Shenzhen0755",
        "city": "深圳",
        "pinyin": "Shenzhen",
        "id": "0755"
    }, {
        "label": "石家庄Shijiazhuang0311",
        "city": "石家庄",
        "pinyin": "Shijiazhuang",
        "id": "0311"
    }, {
        "label": "苏州Suzhou0512",
        "city": "苏州",
        "pinyin": "Suzhou",
        "id": "0512"
    }, {
        "label": "台州Taizhou0576",
        "city": "台州",
        "pinyin": "Taizhou",
        "id": "0576"
    }, {
        "label": "唐山Tangshan0315",
        "city": "唐山",
        "pinyin": "Tangshan",
        "id": "0315"
    }, {
        "label": "潍坊Weifang0536",
        "city": "潍坊",
        "pinyin": "Weifang",
        "id": "0536"
    }, {
        "label": "威海Weihai0631",
        "city": "威海",
        "pinyin": "Weihai",
        "id": "0631"
    }, {
        "label": "武汉Wuhan027",
        "city": "武汉",
        "pinyin": "Wuhan",
        "id": "027"
    }, {
        "label": "无锡Wuxi0510",
        "city": "无锡",
        "pinyin": "Wuxi",
        "id": "0510"
    }, {
        "label": "厦门Xiamen0592",
        "city": "厦门",
        "pinyin": "Xiamen",
        "id": "0592"
    }, {
        "label": "西安Xian029",
        "city": "西安",
        "pinyin": "Xian",
        "id": "029"
    }, {
        "label": "许昌Xuchang0374",
        "city": "许昌",
        "pinyin": "Xuchang",
        "id": "0374"
    }, {
        "label": "徐州Xuzhou0516",
        "city": "徐州",
        "pinyin": "Xuzhou",
        "id": "0516"
    }, {
        "label": "扬州Yangzhou0514",
        "city": "扬州",
        "pinyin": "Yangzhou",
        "id": "0514"
    }, {
        "label": "烟台Yantai0535",
        "city": "烟台",
        "pinyin": "Yantai",
        "id": "0535"
    }, {
        "label": "漳州Zhangzhou0596",
        "city": "漳州",
        "pinyin": "Zhangzhou",
        "id": "0596"
    }, {
        "label": "郑州Zhengzhou0371",
        "city": "郑州",
        "pinyin": "Zhengzhou",
        "id": "0371"
    }, {
        "label": "中山Zhongshan0760",
        "city": "中山",
        "pinyin": "Zhongshan",
        "id": "0760"
    }, {
        "label": "珠海Zhuhai0756",
        "city": "珠海",
        "pinyin": "Zhuhai",
        "id": "0756"
    }, {
        "label": "阿坝Aba0837",
        "city": "阿坝",
        "pinyin": "Aba",
        "id": "0837"
    }, {
        "label": "阿克苏Akesu0997",
        "city": "阿克苏",
        "pinyin": "Akesu",
        "id": "0997"
    }, {
        "label": "阿拉善盟Alashanmeng0483",
        "city": "阿拉善盟",
        "pinyin": "Alashanmeng",
        "id": "0483"
    }, {
        "label": "阿勒泰Aletai0906",
        "city": "阿勒泰",
        "pinyin": "Aletai",
        "id": "0906"
    }, {
        "label": "阿里Ali0897",
        "city": "阿里",
        "pinyin": "Ali",
        "id": "0897"
    }, {
        "label": "安康Ankang0915",
        "city": "安康",
        "pinyin": "Ankang",
        "id": "0915"
    }, {
        "label": "安庆Anqing0556",
        "city": "安庆",
        "pinyin": "Anqing",
        "id": "0556"
    }, {
        "label": "鞍山Anshan0412",
        "city": "鞍山",
        "pinyin": "Anshan",
        "id": "0412"
    }, {
        "label": "安顺Anshun0853",
        "city": "安顺",
        "pinyin": "Anshun",
        "id": "0853"
    }, {
        "label": "安阳Anyang0372",
        "city": "安阳",
        "pinyin": "Anyang",
        "id": "0372"
    }, {
        "label": "白城Baicheng0436",
        "city": "白城",
        "pinyin": "Baicheng",
        "id": "0436"
    }, {
        "label": "百色Baise0776",
        "city": "百色",
        "pinyin": "Baise",
        "id": "0776"
    }, {
        "label": "白山Baishan0439",
        "city": "白山",
        "pinyin": "Baishan",
        "id": "0439"
    }, {
        "label": "白银Baiyin0943",
        "city": "白银",
        "pinyin": "Baiyin",
        "id": "0943"
    }, {
        "label": "蚌埠Bangbu0552",
        "city": "蚌埠",
        "pinyin": "Bangbu",
        "id": "0552"
    }, {
        "label": "保定Baoding0312",
        "city": "保定",
        "pinyin": "Baoding",
        "id": "0312"
    }, {
        "label": "宝鸡Baoji0917",
        "city": "宝鸡",
        "pinyin": "Baoji",
        "id": "0917"
    }, {
        "label": "保山Baoshan0875",
        "city": "保山",
        "pinyin": "Baoshan",
        "id": "0875"
    }, {
        "label": "包头Baotou0472",
        "city": "包头",
        "pinyin": "Baotou",
        "id": "0472"
    }, {
        "label": "巴彦淖尔Bayannaoer0478",
        "city": "巴彦淖尔",
        "pinyin": "Bayannaoer",
        "id": "0478"
    }, {
        "label": "巴音郭楞Bayinguoleng0996",
        "city": "巴音郭楞",
        "pinyin": "Bayinguoleng",
        "id": "0996"
    }, {
        "label": "巴中Bazhong0827",
        "city": "巴中",
        "pinyin": "Bazhong",
        "id": "0827"
    }, {
        "label": "北海Beihai0779",
        "city": "北海",
        "pinyin": "Beihai",
        "id": "0779"
    }, {
        "label": "本溪Benxi0414",
        "city": "本溪",
        "pinyin": "Benxi",
        "id": "0414"
    }, {
        "label": "毕节Bijie0857",
        "city": "毕节",
        "pinyin": "Bijie",
        "id": "0857"
    }, {
        "label": "滨州Binzhou0543",
        "city": "滨州",
        "pinyin": "Binzhou",
        "id": "0543"
    }, {
        "label": "博尔塔拉Boertala0909",
        "city": "博尔塔拉",
        "pinyin": "Boertala",
        "id": "0909"
    }, {
        "label": "亳州Bozhou0558",
        "city": "亳州",
        "pinyin": "Bozhou",
        "id": "0558"
    }, {
        "label": "沧州Cangzhou0317",
        "city": "沧州",
        "pinyin": "Cangzhou",
        "id": "0317"
    }, {
        "label": "常德Changde0736",
        "city": "常德",
        "pinyin": "Changde",
        "id": "0736"
    }, {
        "label": "昌都Changdu0895",
        "city": "昌都",
        "pinyin": "Changdu",
        "id": "0895"
    }, {
        "label": "昌吉Changji0994",
        "city": "昌吉",
        "pinyin": "Changji",
        "id": "0994"
    }, {
        "label": "长治Changzhi0355",
        "city": "长治",
        "pinyin": "Changzhi",
        "id": "0355"
    }, {
        "label": "巢湖Chaohu0565",
        "city": "巢湖",
        "pinyin": "Chaohu",
        "id": "0565"
    }, {
        "label": "朝阳Chaoyang0421",
        "city": "朝阳",
        "pinyin": "Chaoyang",
        "id": "0421"
    }, {
        "label": "潮州Chaozhou0768",
        "city": "潮州",
        "pinyin": "Chaozhou",
        "id": "0768"
    }, {
        "label": "承德Chengde0314",
        "city": "承德",
        "pinyin": "Chengde",
        "id": "0314"
    }, {
        "label": "郴州Chenzhou0735",
        "city": "郴州",
        "pinyin": "Chenzhou",
        "id": "0735"
    }, {
        "label": "赤峰Chifeng0476",
        "city": "赤峰",
        "pinyin": "Chifeng",
        "id": "0476"
    }, {
        "label": "池州Chizhou0566",
        "city": "池州",
        "pinyin": "Chizhou",
        "id": "0566"
    },  {
        "label": "楚雄Chuxiong0878",
        "city": "楚雄",
        "pinyin": "Chuxiong",
        "id": "0878"
    }, {
        "label": "滁州Chuzhou0550",
        "city": "滁州",
        "pinyin": "Chuzhou",
        "id": "0550"
    }, {
        "label": "大理Dali0872",
        "city": "大理",
        "pinyin": "Dali",
        "id": "0872"
    }, {
        "label": "丹东Dandong0415",
        "city": "丹东",
        "pinyin": "Dandong",
        "id": "0415"
    }, {
        "label": "大庆Daqing0459",
        "city": "大庆",
        "pinyin": "Daqing",
        "id": "0459"
    }, {
        "label": "大同Datong0352",
        "city": "大同",
        "pinyin": "Datong",
        "id": "0352"
    }, {
        "label": "大兴安岭Daxinganling0457",
        "city": "大兴安岭",
        "pinyin": "Daxinganling",
        "id": "0457"
    }, {
        "label": "达州Dazhou0818",
        "city": "达州",
        "pinyin": "Dazhou",
        "id": "0818"
    }, {
        "label": "德宏Dehong0692",
        "city": "德宏",
        "pinyin": "Dehong",
        "id": "0692"
    }, {
        "label": "德阳Deyang0838",
        "city": "德阳",
        "pinyin": "Deyang",
        "id": "0838"
    }, {
        "label": "德州Dezhou0534",
        "city": "德州",
        "pinyin": "Dezhou",
        "id": "0534"
    }, {
        "label": "定西Dingxi0932",
        "city": "定西",
        "pinyin": "Dingxi",
        "id": "0932"
    }, {
        "label": "迪庆Diqing0887",
        "city": "迪庆",
        "pinyin": "Diqing",
        "id": "0887"
    }, {
        "label": "东营Dongying0546",
        "city": "东营",
        "pinyin": "Dongying",
        "id": "0546"
    }, {
        "label": "鄂尔多斯Eerduosi0477",
        "city": "鄂尔多斯",
        "pinyin": "Eerduosi",
        "id": "0477"
    }, {
        "label": "恩施Enshi0718",
        "city": "恩施",
        "pinyin": "Enshi",
        "id": "0718"
    }, {
        "label": "鄂州Ezhou0711",
        "city": "鄂州",
        "pinyin": "Ezhou",
        "id": "0711"
    }, {
        "label": "防城港Fangchenggang0770",
        "city": "防城港",
        "pinyin": "Fangchenggang",
        "id": "0770"
    }, {
        "label": "抚顺Fushun0413",
        "city": "抚顺",
        "pinyin": "Fushun",
        "id": "0413"
    }, {
        "label": "阜新Fuxin0418",
        "city": "阜新",
        "pinyin": "Fuxin",
        "id": "0418"
    }, {
        "label": "阜阳Fuyang0558",
        "city": "阜阳",
        "pinyin": "Fuyang",
        "id": "0558"
    }, {
        "label": "抚州Fuzhou0794",
        "city": "抚州",
        "pinyin": "Fuzhou",
        "id": "0794"
    }, {
        "label": "甘南Gannan0941",
        "city": "甘南",
        "pinyin": "Gannan",
        "id": "0941"
    }, {
        "label": "赣州Ganzhou0797",
        "city": "赣州",
        "pinyin": "Ganzhou",
        "id": "0797"
    }, {
        "label": "甘孜Ganzi0836",
        "city": "甘孜",
        "pinyin": "Ganzi",
        "id": "0836"
    }, {
        "label": "广安Guangan0826",
        "city": "广安",
        "pinyin": "Guangan",
        "id": "0826"
    }, {
        "label": "广元Guangyuan0839",
        "city": "广元",
        "pinyin": "Guangyuan",
        "id": "0839"
    }, {
        "label": "贵港Guigang0775",
        "city": "贵港",
        "pinyin": "Guigang",
        "id": "0775"
    }, {
        "label": "桂林Guilin0773",
        "city": "桂林",
        "pinyin": "Guilin",
        "id": "0773"
    }, {
        "label": "果洛Guoluo0975",
        "city": "果洛",
        "pinyin": "Guoluo",
        "id": "0975"
    }, {
        "label": "固原Guyuan0954",
        "city": "固原",
        "pinyin": "Guyuan",
        "id": "0954"
    }, {
        "label": "海北Haibei0970",
        "city": "海北",
        "pinyin": "Haibei",
        "id": "0970"
    }, {
        "label": "海东Haidong0972",
        "city": "海东",
        "pinyin": "Haidong",
        "id": "0972"
    }, {
        "label": "海南Hainan0974",
        "city": "海南",
        "pinyin": "Hainan",
        "id": "0974"
    }, {
        "label": "海西Haixi0977",
        "city": "海西",
        "pinyin": "Haixi",
        "id": "0977"
    }, {
        "label": "哈密Hami0902",
        "city": "哈密",
        "pinyin": "Hami",
        "id": "0902"
    }, {
        "label": "汉中Hanzhong0916",
        "city": "汉中",
        "pinyin": "Hanzhong",
        "id": "0916"
    }, {
        "label": "鹤壁Hebi0392",
        "city": "鹤壁",
        "pinyin": "Hebi",
        "id": "0392"
    }, {
        "label": "河池Hechi0778",
        "city": "河池",
        "pinyin": "Hechi",
        "id": "0778"
    }, {
        "label": "鹤岗Hegang0468",
        "city": "鹤岗",
        "pinyin": "Hegang",
        "id": "0468"
    }, {
        "label": "黑河Heihe0456",
        "city": "黑河",
        "pinyin": "Heihe",
        "id": "0456"
    }, {
        "label": "衡水Hengshui0318",
        "city": "衡水",
        "pinyin": "Hengshui",
        "id": "0318"
    }, {
        "label": "衡阳Hengyang0734",
        "city": "衡阳",
        "pinyin": "Hengyang",
        "id": "0734"
    }, {
        "label": "和田地Hetiandi0903",
        "city": "和田地",
        "pinyin": "Hetiandi",
        "id": "0903"
    }, {
        "label": "河源Heyuan0762",
        "city": "河源",
        "pinyin": "Heyuan",
        "id": "0762"
    }, {
        "label": "菏泽Heze0530",
        "city": "菏泽",
        "pinyin": "Heze",
        "id": "0530"
    }, {
        "label": "贺州Hezhou0774",
        "city": "贺州",
        "pinyin": "Hezhou",
        "id": "0774"
    }, {
        "label": "红河Honghe0873",
        "city": "红河",
        "pinyin": "Honghe",
        "id": "0873"
    }, {
        "label": "淮安Huaian0517",
        "city": "淮安",
        "pinyin": "Huaian",
        "id": "0517"
    }, {
        "label": "淮北Huaibei0561",
        "city": "淮北",
        "pinyin": "Huaibei",
        "id": "0561"
    }, {
        "label": "怀化Huaihua0745",
        "city": "怀化",
        "pinyin": "Huaihua",
        "id": "0745"
    }, {
        "label": "淮南Huainan0554",
        "city": "淮南",
        "pinyin": "Huainan",
        "id": "0554"
    }, {
        "label": "黄冈Huanggang0713",
        "city": "黄冈",
        "pinyin": "Huanggang",
        "id": "0713"
    }, {
        "label": "黄南Huangnan0973",
        "city": "黄南",
        "pinyin": "Huangnan",
        "id": "0973"
    }, {
        "label": "黄山Huangshan0559",
        "city": "黄山",
        "pinyin": "Huangshan",
        "id": "0559"
    }, {
        "label": "黄石Huangshi0714",
        "city": "黄石",
        "pinyin": "Huangshi",
        "id": "0714"
    }, {
        "label": "呼和浩特Huhehaote0471",
        "city": "呼和浩特",
        "pinyin": "Huhehaote",
        "id": "0471"
    }, {
        "label": "葫芦岛Huludao0429",
        "city": "葫芦岛",
        "pinyin": "Huludao",
        "id": "0429"
    }, {
        "label": "呼伦贝尔Hulunbeier0470",
        "city": "呼伦贝尔",
        "pinyin": "Hulunbeier",
        "id": "0470"
    }, {
        "label": "湖州Huzhou0572",
        "city": "湖州",
        "pinyin": "Huzhou",
        "id": "0572"
    }, {
        "label": "佳木斯Jiamusi0454",
        "city": "佳木斯",
        "pinyin": "Jiamusi",
        "id": "0454"
    }, {
        "label": "江门Jiangmen0750",
        "city": "江门",
        "pinyin": "Jiangmen",
        "id": "0750"
    }, {
        "label": "吉安Jian0796",
        "city": "吉安",
        "pinyin": "Jian",
        "id": "0796"
    }, {
        "label": "嘉峪关Jiayuguan0937",
        "city": "嘉峪关",
        "pinyin": "Jiayuguan",
        "id": "0937"
    }, {
        "label": "揭阳Jieyang0663",
        "city": "揭阳",
        "pinyin": "Jieyang",
        "id": "0663"
    }, {
        "label": "金昌Jinchang0935",
        "city": "金昌",
        "pinyin": "Jinchang",
        "id": "0935"
    }, {
        "label": "晋城Jincheng0356",
        "city": "晋城",
        "pinyin": "Jincheng",
        "id": "0356"
    }, {
        "label": "景德镇Jingdezhen0798",
        "city": "景德镇",
        "pinyin": "Jingdezhen",
        "id": "0798"
    }, {
        "label": "荆门Jingmen0724",
        "city": "荆门",
        "pinyin": "Jingmen",
        "id": "0724"
    }, {
        "label": "荆州Jingzhou0716",
        "city": "荆州",
        "pinyin": "Jingzhou",
        "id": "0716"
    }, {
        "label": "金华Jinhua0579",
        "city": "金华",
        "pinyin": "Jinhua",
        "id": "0579"
    }, {
        "label": "济宁Jining0537",
        "city": "济宁",
        "pinyin": "Jining",
        "id": "0537"
    }, {
        "label": "晋中Jinzhong0354",
        "city": "晋中",
        "pinyin": "Jinzhong",
        "id": "0354"
    }, {
        "label": "锦州Jinzhou0416",
        "city": "锦州",
        "pinyin": "Jinzhou",
        "id": "0416"
    }, {
        "label": "九江Jiujiang0792",
        "city": "九江",
        "pinyin": "Jiujiang",
        "id": "0792"
    }, {
        "label": "酒泉Jiuquan0937",
        "city": "酒泉",
        "pinyin": "Jiuquan",
        "id": "0937"
    }, {
        "label": "鸡西Jixi0467",
        "city": "鸡西",
        "pinyin": "Jixi",
        "id": "0467"
    }, {
        "label": "开封Kaifeng0378",
        "city": "开封",
        "pinyin": "Kaifeng",
        "id": "0378"
    }, {
        "label": "喀什地Kashidi0998",
        "city": "喀什地",
        "pinyin": "Kashidi",
        "id": "0998"
    }, {
        "label": "克拉玛依Kelamayi0990",
        "city": "克拉玛依",
        "pinyin": "Kelamayi",
        "id": "0990"
    }, {
        "label": "克孜勒Kezile0908",
        "city": "克孜勒",
        "pinyin": "Kezile",
        "id": "0908"
    }, {
        "label": "来宾Laibin0772",
        "city": "来宾",
        "pinyin": "Laibin",
        "id": "0772"
    }, {
        "label": "莱芜Laiwu0634",
        "city": "莱芜",
        "pinyin": "Laiwu",
        "id": "0634"
    }, {
        "label": "廊坊Langfang0316",
        "city": "廊坊",
        "pinyin": "Langfang",
        "id": "0316"
    }, {
        "label": "拉萨Lasa0891",
        "city": "拉萨",
        "pinyin": "Lasa",
        "id": "0891"
    }, {
        "label": "乐山Leshan0833",
        "city": "乐山",
        "pinyin": "Leshan",
        "id": "0833"
    }, {
        "label": "凉山Liangshan0834",
        "city": "凉山",
        "pinyin": "Liangshan",
        "id": "0834"
    }, {
        "label": "连云港Lianyungang0518",
        "city": "连云港",
        "pinyin": "Lianyungang",
        "id": "0518"
    }, {
        "label": "聊城Liaocheng0635",
        "city": "聊城",
        "pinyin": "Liaocheng",
        "id": "0635"
    }, {
        "label": "辽阳Liaoyang0419",
        "city": "辽阳",
        "pinyin": "Liaoyang",
        "id": "0419"
    }, {
        "label": "辽源Liaoyuan0437",
        "city": "辽源",
        "pinyin": "Liaoyuan",
        "id": "0437"
    }, {
        "label": "丽江Lijiang0888",
        "city": "丽江",
        "pinyin": "Lijiang",
        "id": "0888"
    }, {
        "label": "临沧Lincang0883",
        "city": "临沧",
        "pinyin": "Lincang",
        "id": "0883"
    }, {
        "label": "临汾Linfen0357",
        "city": "临汾",
        "pinyin": "Linfen",
        "id": "0357"
    }, {
        "label": "临夏Linxia0930",
        "city": "临夏",
        "pinyin": "Linxia",
        "id": "0930"
    }, {
        "label": "临沂Linyi0539",
        "city": "临沂",
        "pinyin": "Linyi",
        "id": "0539"
    }, {
        "label": "林芝Linzhi0894",
        "city": "林芝",
        "pinyin": "Linzhi",
        "id": "0894"
    }, {
        "label": "丽水Lishui0578",
        "city": "丽水",
        "pinyin": "Lishui",
        "id": "0578"
    }, {
        "label": "六安Liuan0564",
        "city": "六安",
        "pinyin": "Liuan",
        "id": "0564"
    }, {
        "label": "六盘水Liupanshui0858",
        "city": "六盘水",
        "pinyin": "Liupanshui",
        "id": "0858"
    }, {
        "label": "陇南Longnan0939",
        "city": "陇南",
        "pinyin": "Longnan",
        "id": "0939"
    }, {
        "label": "龙岩Longyan0597",
        "city": "龙岩",
        "pinyin": "Longyan",
        "id": "0597"
    }, {
        "label": "娄底Loudi0738",
        "city": "娄底",
        "pinyin": "Loudi",
        "id": "0738"
    }, {
        "label": "漯河Luohe0395",
        "city": "漯河",
        "pinyin": "Luohe",
        "id": "0395"
    }, {
        "label": "泸州Luzhou0830",
        "city": "泸州",
        "pinyin": "Luzhou",
        "id": "0830"
    }, {
        "label": "吕梁Lvliang0358",
        "city": "吕梁",
        "pinyin": "Lvliang",
        "id": "0358"
    }, {
        "label": "马鞍山Maanshan0555",
        "city": "马鞍山",
        "pinyin": "Maanshan",
        "id": "0555"
    }, {
        "label": "茂名Maoming0668",
        "city": "茂名",
        "pinyin": "Maoming",
        "id": "0668"
    }, {
        "label": "眉山Meishan028",
        "city": "眉山",
        "pinyin": "Meishan",
        "id": "028"
    }, {
        "label": "梅州Meizhou0753",
        "city": "梅州",
        "pinyin": "Meizhou",
        "id": "0753"
    }, {
        "label": "绵阳Mianyang0816",
        "city": "绵阳",
        "pinyin": "Mianyang",
        "id": "0816"
    }, {
        "label": "牡丹江Mudanjiang0453",
        "city": "牡丹江",
        "pinyin": "Mudanjiang",
        "id": "0453"
    }, {
        "label": "南充Nanchong0817",
        "city": "南充",
        "pinyin": "Nanchong",
        "id": "0817"
    }, {
        "label": "南平Nanping0599",
        "city": "南平",
        "pinyin": "Nanping",
        "id": "0599"
    }, {
        "label": "南阳Nanyang0377",
        "city": "南阳",
        "pinyin": "Nanyang",
        "id": "0377"
    }, {
        "label": "那曲Naqu0896",
        "city": "那曲",
        "pinyin": "Naqu",
        "id": "0896"
    }, {
        "label": "内江Neijiang0832",
        "city": "内江",
        "pinyin": "Neijiang",
        "id": "0832"
    }, {
        "label": "宁德Ningde0593",
        "city": "宁德",
        "pinyin": "Ningde",
        "id": "0593"
    }, {
        "label": "怒江Nujiang0886",
        "city": "怒江",
        "pinyin": "Nujiang",
        "id": "0886"
    }, {
        "label": "盘锦Panjin0427",
        "city": "盘锦",
        "pinyin": "Panjin",
        "id": "0427"
    }, {
        "label": "攀枝花Panzhihua0812",
        "city": "攀枝花",
        "pinyin": "Panzhihua",
        "id": "0812"
    }, {
        "label": "平顶山Pingdingshan0375",
        "city": "平顶山",
        "pinyin": "Pingdingshan",
        "id": "0375"
    }, {
        "label": "平凉Pingliang0933",
        "city": "平凉",
        "pinyin": "Pingliang",
        "id": "0933"
    }, {
        "label": "萍乡Pingxiang0799",
        "city": "萍乡",
        "pinyin": "Pingxiang",
        "id": "0799"
    }, {
        "label": "普洱Puer0879",
        "city": "普洱",
        "pinyin": "Puer",
        "id": "0879"
    }, {
        "label": "莆田Putian0594",
        "city": "莆田",
        "pinyin": "Putian",
        "id": "0594"
    }, {
        "label": "濮阳Puyang0393",
        "city": "濮阳",
        "pinyin": "Puyang",
        "id": "0393"
    }, {
        "label": "黔东Qiandong0855",
        "city": "黔东",
        "pinyin": "Qiandong",
        "id": "0855"
    }, {
        "label": "黔南Qiannan0854",
        "city": "黔南",
        "pinyin": "Qiannan",
        "id": "0854"
    }, {
        "label": "黔西南Qianxinan0859",
        "city": "黔西南",
        "pinyin": "Qianxinan",
        "id": "0859"
    }, {
        "label": "庆阳Qingyang0934",
        "city": "庆阳",
        "pinyin": "Qingyang",
        "id": "0934"
    }, {
        "label": "清远Qingyuan0763",
        "city": "清远",
        "pinyin": "Qingyuan",
        "id": "0763"
    }, {
        "label": "秦皇岛Qinhuangdao0335",
        "city": "秦皇岛",
        "pinyin": "Qinhuangdao",
        "id": "0335"
    }, {
        "label": "钦州Qinzhou0777",
        "city": "钦州",
        "pinyin": "Qinzhou",
        "id": "0777"
    }, {
        "label": "齐齐哈尔Qiqihaer0452",
        "city": "齐齐哈尔",
        "pinyin": "Qiqihaer",
        "id": "0452"
    }, {
        "label": "七台河Qitaihe0464",
        "city": "七台河",
        "pinyin": "Qitaihe",
        "id": "0464"
    }, {
        "label": "曲靖Qujing0874",
        "city": "曲靖",
        "pinyin": "Qujing",
        "id": "0874"
    }, {
        "label": "衢州Quzhou0570",
        "city": "衢州",
        "pinyin": "Quzhou",
        "id": "0570"
    }, {
        "label": "日喀则Rikaze0892",
        "city": "日喀则",
        "pinyin": "Rikaze",
        "id": "0892"
    }, {
        "label": "日照Rizhao0633",
        "city": "日照",
        "pinyin": "Rizhao",
        "id": "0633"
    }, {
        "label": "三门峡Sanmenxia0398",
        "city": "三门峡",
        "pinyin": "Sanmenxia",
        "id": "0398"
    }, {
        "label": "三明Sanming0598",
        "city": "三明",
        "pinyin": "Sanming",
        "id": "0598"
    }, {
        "label": "三亚Sanya0899",
        "city": "三亚",
        "pinyin": "Sanya",
        "id": "0899"
    }, {
        "label": "商洛Shangluo0914",
        "city": "商洛",
        "pinyin": "Shangluo",
        "id": "0914"
    }, {
        "label": "商丘Shangqiu0370",
        "city": "商丘",
        "pinyin": "Shangqiu",
        "id": "0370"
    }, {
        "label": "上饶Shangrao0793",
        "city": "上饶",
        "pinyin": "Shangrao",
        "id": "0793"
    }, {
        "label": "山南Shannan0893",
        "city": "山南",
        "pinyin": "Shannan",
        "id": "0893"
    }, {
        "label": "汕头Shantou0754",
        "city": "汕头",
        "pinyin": "Shantou",
        "id": "0754"
    }, {
        "label": "汕尾Shanwei0660",
        "city": "汕尾",
        "pinyin": "Shanwei",
        "id": "0660"
    }, {
        "label": "韶关Shaoguan0751",
        "city": "韶关",
        "pinyin": "Shaoguan",
        "id": "0751"
    }, {
        "label": "绍兴Shaoxing0575",
        "city": "绍兴",
        "pinyin": "Shaoxing",
        "id": "0575"
    }, {
        "label": "邵阳Shaoyang0739",
        "city": "邵阳",
        "pinyin": "Shaoyang",
        "id": "0739"
    }, {
        "label": "十堰Shiyan0719",
        "city": "十堰",
        "pinyin": "Shiyan",
        "id": "0719"
    }, {
        "label": "石嘴山Shizuishan0952",
        "city": "石嘴山",
        "pinyin": "Shizuishan",
        "id": "0952"
    }, {
        "label": "双鸭山Shuangyashan0469",
        "city": "双鸭山",
        "pinyin": "Shuangyashan",
        "id": "0469"
    }, {
        "label": "朔州Shuozhou0349",
        "city": "朔州",
        "pinyin": "Shuozhou",
        "id": "0349"
    }, {
        "label": "四平Siping0434",
        "city": "四平",
        "pinyin": "Siping",
        "id": "0434"
    }, {
        "label": "松原Songyuan0438",
        "city": "松原",
        "pinyin": "Songyuan",
        "id": "0438"
    }, {
        "label": "绥化Suihua0455",
        "city": "绥化",
        "pinyin": "Suihua",
        "id": "0455"
    }, {
        "label": "遂宁Suining0825",
        "city": "遂宁",
        "pinyin": "Suining",
        "id": "0825"
    }, {
        "label": "随州Suizhou0722",
        "city": "随州",
        "pinyin": "Suizhou",
        "id": "0722"
    }, {
        "label": "宿迁Suqian0527",
        "city": "宿迁",
        "pinyin": "Suqian",
        "id": "0527"
    }, {
        "label": "宿州Suzhou0557",
        "city": "宿州",
        "pinyin": "Suzhou",
        "id": "0557"
    }, {
        "label": "塔城地Tachengdi0901",
        "city": "塔城地",
        "pinyin": "Tachengdi",
        "id": "0901"
    }, {
        "label": "泰安Taian0538",
        "city": "泰安",
        "pinyin": "Taian",
        "id": "0538"
    }, {
        "label": "太原Taiyuan0351",
        "city": "太原",
        "pinyin": "Taiyuan",
        "id": "0351"
    }, {
        "label": "泰州Taizhou0523",
        "city": "泰州",
        "pinyin": "Taizhou",
        "id": "0523"
    }, {
        "label": "天水Tianshui0938",
        "city": "天水",
        "pinyin": "Tianshui",
        "id": "0938"
    }, {
        "label": "铁岭Tieling0410",
        "city": "铁岭",
        "pinyin": "Tieling",
        "id": "0410"
    }, {
        "label": "铜川Tongchuan0919",
        "city": "铜川",
        "pinyin": "Tongchuan",
        "id": "0919"
    }, {
        "label": "通化Tonghua0435",
        "city": "通化",
        "pinyin": "Tonghua",
        "id": "0435"
    }, {
        "label": "通辽Tongliao0475",
        "city": "通辽",
        "pinyin": "Tongliao",
        "id": "0475"
    }, {
        "label": "铜陵Tongling0562",
        "city": "铜陵",
        "pinyin": "Tongling",
        "id": "0562"
    }, {
        "label": "铜仁Tongren0856",
        "city": "铜仁",
        "pinyin": "Tongren",
        "id": "0856"
    }, {
        "label": "吐鲁番Tulufan0995",
        "city": "吐鲁番",
        "pinyin": "Tulufan",
        "id": "0995"
    }, {
        "label": "渭南Weinan0913",
        "city": "渭南",
        "pinyin": "Weinan",
        "id": "0913"
    }, {
        "label": "文山Wenshan0876",
        "city": "文山",
        "pinyin": "Wenshan",
        "id": "0876"
    }, {
        "label": "温州Wenzhou0577",
        "city": "温州",
        "pinyin": "Wenzhou",
        "id": "0577"
    }, {
        "label": "乌海Wuhai0473",
        "city": "乌海",
        "pinyin": "Wuhai",
        "id": "0473"
    }, {
        "label": "芜湖Wuhu0553",
        "city": "芜湖",
        "pinyin": "Wuhu",
        "id": "0553"
    }, {
        "label": "乌兰察布Wulanchabu0474",
        "city": "乌兰察布",
        "pinyin": "Wulanchabu",
        "id": "0474"
    }, {
        "label": "乌鲁木齐Wulumuqi0991",
        "city": "乌鲁木齐",
        "pinyin": "Wulumuqi",
        "id": "0991"
    }, {
        "label": "武威Wuwei0935",
        "city": "武威",
        "pinyin": "Wuwei",
        "id": "0935"
    }, {
        "label": "吴忠Wuzhong0953",
        "city": "吴忠",
        "pinyin": "Wuzhong",
        "id": "0953"
    }, {
        "label": "梧州Wuzhou0774",
        "city": "梧州",
        "pinyin": "Wuzhou",
        "id": "0774"
    }, {
        "label": "襄樊Xiangfan0710",
        "city": "襄樊",
        "pinyin": "Xiangfan",
        "id": "0710"
    }, {
        "label": "湘潭Xiangtan0732",
        "city": "湘潭",
        "pinyin": "Xiangtan",
        "id": "0732"
    }, {
        "label": "湘西Xiangxi0743",
        "city": "湘西",
        "pinyin": "Xiangxi",
        "id": "0743"
    }, {
        "label": "咸宁Xianning0715",
        "city": "咸宁",
        "pinyin": "Xianning",
        "id": "0715"
    }, {
        "label": "咸阳Xianyang029",
        "city": "咸阳",
        "pinyin": "Xianyang",
        "id": "029"
    }, {
        "label": "孝感Xiaogan0712",
        "city": "孝感",
        "pinyin": "Xiaogan",
        "id": "0712"
    }, {
        "label": "锡林郭勒盟Xilinguolemeng0479",
        "city": "锡林郭勒盟",
        "pinyin": "Xilinguolemeng",
        "id": "0479"
    }, {
        "label": "兴安盟Xinganmeng0482",
        "city": "兴安盟",
        "pinyin": "Xinganmeng",
        "id": "0482"
    }, {
        "label": "邢台Xingtai0319",
        "city": "邢台",
        "pinyin": "Xingtai",
        "id": "0319"
    }, {
        "label": "西宁Xining0971",
        "city": "西宁",
        "pinyin": "Xining",
        "id": "0971"
    }, {
        "label": "新乡Xinxiang0373",
        "city": "新乡",
        "pinyin": "Xinxiang",
        "id": "0373"
    }, {
        "label": "信阳Xinyang0376",
        "city": "信阳",
        "pinyin": "Xinyang",
        "id": "0376"
    }, {
        "label": "新余Xinyu0790",
        "city": "新余",
        "pinyin": "Xinyu",
        "id": "0790"
    }, {
        "label": "忻州Xinzhou0350",
        "city": "忻州",
        "pinyin": "Xinzhou",
        "id": "0350"
    }, {
        "label": "西双版纳Xishuangbanna0691",
        "city": "西双版纳",
        "pinyin": "Xishuangbanna",
        "id": "0691"
    }, {
        "label": "宣城Xuancheng0563",
        "city": "宣城",
        "pinyin": "Xuancheng",
        "id": "0563"
    }, {
        "label": "雅安Yaan0835",
        "city": "雅安",
        "pinyin": "Yaan",
        "id": "0835"
    }, {
        "label": "延安Yanan0911",
        "city": "延安",
        "pinyin": "Yanan",
        "id": "0911"
    }, {
        "label": "延边Yanbian0433",
        "city": "延边",
        "pinyin": "Yanbian",
        "id": "0433"
    }, {
        "label": "盐城Yancheng0515",
        "city": "盐城",
        "pinyin": "Yancheng",
        "id": "0515"
    }, {
        "label": "阳江Yangjiang0662",
        "city": "阳江",
        "pinyin": "Yangjiang",
        "id": "0662"
    }, {
        "label": "阳泉Yangquan0353",
        "city": "阳泉",
        "pinyin": "Yangquan",
        "id": "0353"
    }, {
        "label": "宜宾Yibin0831",
        "city": "宜宾",
        "pinyin": "Yibin",
        "id": "0831"
    }, {
        "label": "宜昌Yichang0717",
        "city": "宜昌",
        "pinyin": "Yichang",
        "id": "0717"
    }, {
        "label": "伊春Yichun0458",
        "city": "伊春",
        "pinyin": "Yichun",
        "id": "0458"
    }, {
        "label": "宜春Yichun0795",
        "city": "宜春",
        "pinyin": "Yichun",
        "id": "0795"
    }, {
        "label": "伊犁哈萨克Yilihasake0999",
        "city": "伊犁哈萨克",
        "pinyin": "Yilihasake",
        "id": "0999"
    }, {
        "label": "银川Yinchuan0951",
        "city": "银川",
        "pinyin": "Yinchuan",
        "id": "0951"
    }, {
        "label": "营口Yingkou0417",
        "city": "营口",
        "pinyin": "Yingkou",
        "id": "0417"
    }, {
        "label": "鹰潭Yingtan0701",
        "city": "鹰潭",
        "pinyin": "Yingtan",
        "id": "0701"
    }, {
        "label": "益阳Yiyang0737",
        "city": "益阳",
        "pinyin": "Yiyang",
        "id": "0737"
    }, {
        "label": "永州Yongzhou0746",
        "city": "永州",
        "pinyin": "Yongzhou",
        "id": "0746"
    }, {
        "label": "岳阳Yueyang0730",
        "city": "岳阳",
        "pinyin": "Yueyang",
        "id": "0730"
    }, {
        "label": "玉林Yulin0775",
        "city": "玉林",
        "pinyin": "Yulin",
        "id": "0775"
    }, {
        "label": "榆林Yulin0912",
        "city": "榆林",
        "pinyin": "Yulin",
        "id": "0912"
    }, {
        "label": "运城Yuncheng0359",
        "city": "运城",
        "pinyin": "Yuncheng",
        "id": "0359"
    }, {
        "label": "云浮Yunfu0766",
        "city": "云浮",
        "pinyin": "Yunfu",
        "id": "0766"
    }, {
        "label": "玉树Yushu0976",
        "city": "玉树",
        "pinyin": "Yushu",
        "id": "0976"
    }, {
        "label": "玉溪Yuxi0877",
        "city": "玉溪",
        "pinyin": "Yuxi",
        "id": "0877"
    }, {
        "label": "枣庄Zaozhuang0623",
        "city": "枣庄",
        "pinyin": "Zaozhuang",
        "id": "0623"
    }, {
        "label": "张家界Zhangjiajie0744",
        "city": "张家界",
        "pinyin": "Zhangjiajie",
        "id": "0744"
    }, {
        "label": "张家口Zhangjiakou0313",
        "city": "张家口",
        "pinyin": "Zhangjiakou",
        "id": "0313"
    }, {
        "label": "张掖Zhangye0936",
        "city": "张掖",
        "pinyin": "Zhangye",
        "id": "0936"
    }, {
        "label": "湛江Zhanjiang0759",
        "city": "湛江",
        "pinyin": "Zhanjiang",
        "id": "0759"
    }, {
        "label": "肇庆Zhaoqing0758",
        "city": "肇庆",
        "pinyin": "Zhaoqing",
        "id": "0758"
    }, {
        "label": "昭通Zhaotong0870",
        "city": "昭通",
        "pinyin": "Zhaotong",
        "id": "0870"
    }, {
        "label": "镇江Zhenjiang0511",
        "city": "镇江",
        "pinyin": "Zhenjiang",
        "id": "0511"
    }, {
        "label": "中卫Zhongwei0955",
        "city": "中卫",
        "pinyin": "Zhongwei",
        "id": "0955"
    }, {
        "label": "周口Zhoukou0394",
        "city": "周口",
        "pinyin": "Zhoukou",
        "id": "0394"
    }, {
        "label": "舟山Zhoushan0580",
        "city": "舟山",
        "pinyin": "Zhoushan",
        "id": "0580"
    }, {
        "label": "驻马店Zhumadian0396",
        "city": "驻马店",
        "pinyin": "Zhumadian",
        "id": "0396"
    }, {
        "label": "株洲Zhuzhou0731",
        "city": "株洲",
        "pinyin": "Zhuzhou",
        "id": "0731"
    }, {
        "label": "淄博Zibo0533",
        "city": "淄博",
        "pinyin": "Zibo",
        "id": "0533"
    }, {
        "label": "自贡Zigong0813",
        "city": "自贡",
        "pinyin": "Zigong",
        "id": "0813"
    }, {
        "label": "资阳Ziyang028",
        "city": "资阳",
        "pinyin": "Ziyang",
        "id": "028"
    }, {
        "label": "遵义Zunyi0852",
        "city": "遵义",
        "pinyin": "Zunyi",
        "id": "0852"
    }, {
        "label": "阿城Acheng0451",
        "city": "阿城",
        "pinyin": "Acheng",
        "id": "0451"
    }, {
        "label": "安福Anfu0796",
        "city": "安福",
        "pinyin": "Anfu",
        "id": "0796"
    }, {
        "label": "安吉Anji0572",
        "city": "安吉",
        "pinyin": "Anji",
        "id": "0572"
    }, {
        "label": "安宁Anning0871",
        "city": "安宁",
        "pinyin": "Anning",
        "id": "0871"
    }, {
        "label": "安丘Anqiu0536",
        "city": "安丘",
        "pinyin": "Anqiu",
        "id": "0536"
    }, {
        "label": "安溪Anxi0595",
        "city": "安溪",
        "pinyin": "Anxi",
        "id": "0595"
    }, {
        "label": "安义Anyi0791",
        "city": "安义",
        "pinyin": "Anyi",
        "id": "0791"
    }, {
        "label": "安远Anyuan0797",
        "city": "安远",
        "pinyin": "Anyuan",
        "id": "0797"
    }, {
        "label": "宝应Baoying0514",
        "city": "宝应",
        "pinyin": "Baoying",
        "id": "0514"
    }, {
        "label": "巴彦Bayan0451",
        "city": "巴彦",
        "pinyin": "Bayan",
        "id": "0451"
    }, {
        "label": "滨海Binhai0515",
        "city": "滨海",
        "pinyin": "Binhai",
        "id": "0515"
    }, {
        "label": "宾县Binxian0451",
        "city": "宾县",
        "pinyin": "Binxian",
        "id": "0451"
    },  {
        "label": "璧山Bishan023",
        "city": "璧山",
        "pinyin": "Bishan",
        "id": "023"
    }, {
        "label": "博爱Boai0391",
        "city": "博爱",
        "pinyin": "Boai",
        "id": "0391"
    }, {
        "label": "博罗Boluo0752",
        "city": "博罗",
        "pinyin": "Boluo",
        "id": "0752"
    }, {
        "label": "博兴Boxing0543",
        "city": "博兴",
        "pinyin": "Boxing",
        "id": "0543"
    }, {
        "label": "苍南Cangnan0577",
        "city": "苍南",
        "pinyin": "Cangnan",
        "id": "0577"
    }, {
        "label": "苍山Cangshan0539",
        "city": "苍山",
        "pinyin": "Cangshan",
        "id": "0539"
    }, {
        "label": "曹县Caoxian0530",
        "city": "曹县",
        "pinyin": "Caoxian",
        "id": "0530"
    }, {
        "label": "长岛Changdao0535",
        "city": "长岛",
        "pinyin": "Changdao",
        "id": "0535"
    }, {
        "label": "长丰Changfeng0551",
        "city": "长丰",
        "pinyin": "Changfeng",
        "id": "0551"
    }, {
        "label": "长海Changhai0411",
        "city": "长海",
        "pinyin": "Changhai",
        "id": "0411"
    }, {
        "label": "长乐Changle0591",
        "city": "长乐",
        "pinyin": "Changle",
        "id": "0591"
    }, {
        "label": "昌乐Changle0536",
        "city": "昌乐",
        "pinyin": "Changle",
        "id": "0536"
    }, {
        "label": "常山Changshan0570",
        "city": "常山",
        "pinyin": "Changshan",
        "id": "0570"
    }, {
        "label": "常熟Changshu0512",
        "city": "常熟",
        "pinyin": "Changshu",
        "id": "0512"
    }, {
        "label": "长泰Changtai0596",
        "city": "长泰",
        "pinyin": "Changtai",
        "id": "0596"
    }, {
        "label": "长汀Changting0597",
        "city": "长汀",
        "pinyin": "Changting",
        "id": "0597"
    }, {
        "label": "长兴Changxing0572",
        "city": "长兴",
        "pinyin": "Changxing",
        "id": "0572"
    }, {
        "label": "昌邑Changyi0536",
        "city": "昌邑",
        "pinyin": "Changyi",
        "id": "0536"
    }, {
        "label": "潮安Chaoan0768",
        "city": "潮安",
        "pinyin": "Chaoan",
        "id": "0768"
    }, {
        "label": "呈贡Chenggong0871",
        "city": "呈贡",
        "pinyin": "Chenggong",
        "id": "0871"
    }, {
        "label": "城口Chengkou023",
        "city": "城口",
        "pinyin": "Chengkou",
        "id": "023"
    }, {
        "label": "成武Chengwu0530",
        "city": "成武",
        "pinyin": "Chengwu",
        "id": "0530"
    }, {
        "label": "茌平Chiping0635",
        "city": "茌平",
        "pinyin": "Chiping",
        "id": "0635"
    }, {
        "label": "崇仁Chongren0794",
        "city": "崇仁",
        "pinyin": "Chongren",
        "id": "0794"
    }, {
        "label": "崇义Chongyi0797",
        "city": "崇义",
        "pinyin": "Chongyi",
        "id": "0797"
    }, {
        "label": "崇州Chongzhou028",
        "city": "崇州",
        "pinyin": "Chongzhou",
        "id": "028"
    }, {
        "label": "淳安Chunan0571",
        "city": "淳安",
        "pinyin": "Chunan",
        "id": "0571"
    }, {
        "label": "慈溪Cixi0574",
        "city": "慈溪",
        "pinyin": "Cixi",
        "id": "0574"
    }, {
        "label": "从化Conghua020",
        "city": "从化",
        "pinyin": "Conghua",
        "id": "020"
    }, {
        "label": "枞阳Congyang0556",
        "city": "枞阳",
        "pinyin": "Congyang",
        "id": "0556"
    }, {
        "label": "大丰Dafeng0515",
        "city": "大丰",
        "pinyin": "Dafeng",
        "id": "0515"
    }, {
        "label": "岱山Daishan0580",
        "city": "岱山",
        "pinyin": "Daishan",
        "id": "0580"
    }, {
        "label": "砀山Dangshan0557",
        "city": "砀山",
        "pinyin": "Dangshan",
        "id": "0557"
    }, {
        "label": "当涂Dangtu0555",
        "city": "当涂",
        "pinyin": "Dangtu",
        "id": "0555"
    }, {
        "label": "单县Danxian0530",
        "city": "单县",
        "pinyin": "Danxian",
        "id": "0530"
    }, {
        "label": "丹阳Danyang0511",
        "city": "丹阳",
        "pinyin": "Danyang",
        "id": "0511"
    }, {
        "label": "大埔Dapu0753",
        "city": "大埔",
        "pinyin": "Dapu",
        "id": "0753"
    }, {
        "label": "大田Datian0598",
        "city": "大田",
        "pinyin": "Datian",
        "id": "0598"
    }, {
        "label": "大邑Dayi028",
        "city": "大邑",
        "pinyin": "Dayi",
        "id": "028"
    }, {
        "label": "大余Dayu0797",
        "city": "大余",
        "pinyin": "Dayu",
        "id": "0797"
    }, {
        "label": "大足Dazu023",
        "city": "大足",
        "pinyin": "Dazu",
        "id": "023"
    }, {
        "label": "德安Dean0792",
        "city": "德安",
        "pinyin": "Dean",
        "id": "0792"
    }, {
        "label": "德化Dehua0595",
        "city": "德化",
        "pinyin": "Dehua",
        "id": "0595"
    }, {
        "label": "德惠Dehui0431",
        "city": "德惠",
        "pinyin": "Dehui",
        "id": "0431"
    }, {
        "label": "登封Dengfeng0371",
        "city": "登封",
        "pinyin": "Dengfeng",
        "id": "0371"
    }, {
        "label": "德清Deqing0572",
        "city": "德清",
        "pinyin": "Deqing",
        "id": "0572"
    }, {
        "label": "德庆Deqing0758",
        "city": "德庆",
        "pinyin": "Deqing",
        "id": "0758"
    }, {
        "label": "德兴Dexing0793",
        "city": "德兴",
        "pinyin": "Dexing",
        "id": "0793"
    }, {
        "label": "电白Dianbai0668",
        "city": "电白",
        "pinyin": "Dianbai",
        "id": "0668"
    }, {
        "label": "垫江Dianjiang023",
        "city": "垫江",
        "pinyin": "Dianjiang",
        "id": "023"
    }, {
        "label": "定南Dingnan0797",
        "city": "定南",
        "pinyin": "Dingnan",
        "id": "0797"
    }, {
        "label": "定陶Dingtao0530",
        "city": "定陶",
        "pinyin": "Dingtao",
        "id": "0530"
    }, {
        "label": "定远Dingyuan0550",
        "city": "定远",
        "pinyin": "Dingyuan",
        "id": "0550"
    }, {
        "label": "东阿Donga0635",
        "city": "东阿",
        "pinyin": "Donga",
        "id": "0635"
    }, {
        "label": "东海Donghai0518",
        "city": "东海",
        "pinyin": "Donghai",
        "id": "0518"
    }, {
        "label": "东明Dongming0530",
        "city": "东明",
        "pinyin": "Dongming",
        "id": "0530"
    }, {
        "label": "东平Dongping0538",
        "city": "东平",
        "pinyin": "Dongping",
        "id": "0538"
    }, {
        "label": "东山Dongshan0596",
        "city": "东山",
        "pinyin": "Dongshan",
        "id": "0596"
    }, {
        "label": "东台Dongtai0515",
        "city": "东台",
        "pinyin": "Dongtai",
        "id": "0515"
    }, {
        "label": "洞头Dongtou0577",
        "city": "洞头",
        "pinyin": "Dongtou",
        "id": "0577"
    }, {
        "label": "东乡Dongxiang0794",
        "city": "东乡",
        "pinyin": "Dongxiang",
        "id": "0794"
    }, {
        "label": "东阳Dongyang0579",
        "city": "东阳",
        "pinyin": "Dongyang",
        "id": "0579"
    }, {
        "label": "东源Dongyuan0762",
        "city": "东源",
        "pinyin": "Dongyuan",
        "id": "0762"
    }, {
        "label": "东至Dongzhi0566",
        "city": "东至",
        "pinyin": "Dongzhi",
        "id": "0566"
    }, {
        "label": "都昌Duchang0792",
        "city": "都昌",
        "pinyin": "Duchang",
        "id": "0792"
    }, {
        "label": "都江堰Dujiangyan028",
        "city": "都江堰",
        "pinyin": "Dujiangyan",
        "id": "028"
    }, {
        "label": "恩平Enping0750",
        "city": "恩平",
        "pinyin": "Enping",
        "id": "0750"
    }, {
        "label": "法库Faku024",
        "city": "法库",
        "pinyin": "Faku",
        "id": "024"
    }, {
        "label": "繁昌Fanchang0553",
        "city": "繁昌",
        "pinyin": "Fanchang",
        "id": "0553"
    }, {
        "label": "方正Fangzheng0451",
        "city": "方正",
        "pinyin": "Fangzheng",
        "id": "0451"
    }, {
        "label": "肥城Feicheng0538",
        "city": "肥城",
        "pinyin": "Feicheng",
        "id": "0538"
    }, {
        "label": "肥东Feidong0551",
        "city": "肥东",
        "pinyin": "Feidong",
        "id": "0551"
    }, {
        "label": "肥西Feixi0551",
        "city": "肥西",
        "pinyin": "Feixi",
        "id": "0551"
    }, {
        "label": "费县Feixian0539",
        "city": "费县",
        "pinyin": "Feixian",
        "id": "0539"
    }, {
        "label": "丰城Fengcheng0795",
        "city": "丰城",
        "pinyin": "Fengcheng",
        "id": "0795"
    }, {
        "label": "丰都Fengdu023",
        "city": "丰都",
        "pinyin": "Fengdu",
        "id": "023"
    }, {
        "label": "奉化Fenghua0574",
        "city": "奉化",
        "pinyin": "Fenghua",
        "id": "0574"
    }, {
        "label": "奉节Fengjie023",
        "city": "奉节",
        "pinyin": "Fengjie",
        "id": "023"
    }, {
        "label": "封开Fengkai0758",
        "city": "封开",
        "pinyin": "Fengkai",
        "id": "0758"
    }, {
        "label": "丰顺Fengshun0753",
        "city": "丰顺",
        "pinyin": "Fengshun",
        "id": "0753"
    }, {
        "label": "凤台Fengtai0554",
        "city": "凤台",
        "pinyin": "Fengtai",
        "id": "0554"
    }, {
        "label": "丰县Fengxian0516",
        "city": "丰县",
        "pinyin": "Fengxian",
        "id": "0516"
    }, {
        "label": "奉新Fengxin0795",
        "city": "奉新",
        "pinyin": "Fengxin",
        "id": "0795"
    }, {
        "label": "凤阳Fengyang0550",
        "city": "凤阳",
        "pinyin": "Fengyang",
        "id": "0550"
    }, {
        "label": "分宜Fenyi0790",
        "city": "分宜",
        "pinyin": "Fenyi",
        "id": "0790"
    }, {
        "label": "佛冈Fogang0763",
        "city": "佛冈",
        "pinyin": "Fogang",
        "id": "0763"
    }, {
        "label": "福安Fuan0593",
        "city": "福安",
        "pinyin": "Fuan",
        "id": "0593"
    }, {
        "label": "福鼎Fuding0593",
        "city": "福鼎",
        "pinyin": "Fuding",
        "id": "0593"
    }, {
        "label": "浮梁Fuliang0798",
        "city": "浮梁",
        "pinyin": "Fuliang",
        "id": "0798"
    }, {
        "label": "富民Fumin0871",
        "city": "富民",
        "pinyin": "Fumin",
        "id": "0871"
    }, {
        "label": "阜南Funan0558",
        "city": "阜南",
        "pinyin": "Funan",
        "id": "0558"
    }, {
        "label": "阜宁Funing0515",
        "city": "阜宁",
        "pinyin": "Funing",
        "id": "0515"
    }, {
        "label": "福清Fuqing0591",
        "city": "福清",
        "pinyin": "Fuqing",
        "id": "0591"
    }, {
        "label": "富阳Fuyang0571",
        "city": "富阳",
        "pinyin": "Fuyang",
        "id": "0571"
    }, {
        "label": "赣县Ganxian0797",
        "city": "赣县",
        "pinyin": "Ganxian",
        "id": "0797"
    }, {
        "label": "赣榆Ganyu0518",
        "city": "赣榆",
        "pinyin": "Ganyu",
        "id": "0518"
    }, {
        "label": "高安Gaoan0795",
        "city": "高安",
        "pinyin": "Gaoan",
        "id": "0795"
    }, {
        "label": "藁城Gaocheng0311",
        "city": "藁城",
        "pinyin": "Gaocheng",
        "id": "0311"
    }, {
        "label": "高淳Gaochun025",
        "city": "高淳",
        "pinyin": "Gaochun",
        "id": "025"
    }, {
        "label": "皋兰Gaolan0931",
        "city": "皋兰",
        "pinyin": "Gaolan",
        "id": "0931"
    }, {
        "label": "高陵Gaoling029",
        "city": "高陵",
        "pinyin": "Gaoling",
        "id": "029"
    }, {
        "label": "高密Gaomi0536",
        "city": "高密",
        "pinyin": "Gaomi",
        "id": "0536"
    }, {
        "label": "高青Gaoqing0533",
        "city": "高青",
        "pinyin": "Gaoqing",
        "id": "0533"
    }, {
        "label": "高唐Gaotang0635",
        "city": "高唐",
        "pinyin": "Gaotang",
        "id": "0635"
    }, {
        "label": "高要Gaoyao0758",
        "city": "高要",
        "pinyin": "Gaoyao",
        "id": "0758"
    }, {
        "label": "高邑Gaoyi0311",
        "city": "高邑",
        "pinyin": "Gaoyi",
        "id": "0311"
    }, {
        "label": "高邮Gaoyou0514",
        "city": "高邮",
        "pinyin": "Gaoyou",
        "id": "0514"
    }, {
        "label": "高州Gaozhou0668",
        "city": "高州",
        "pinyin": "Gaozhou",
        "id": "0668"
    }, {
        "label": "巩义Gongyi0371",
        "city": "巩义",
        "pinyin": "Gongyi",
        "id": "0371"
    }, {
        "label": "广昌Guangchang0794",
        "city": "广昌",
        "pinyin": "Guangchang",
        "id": "0794"
    }, {
        "label": "广德Guangde0563",
        "city": "广德",
        "pinyin": "Guangde",
        "id": "0563"
    }, {
        "label": "广丰Guangfeng0793",
        "city": "广丰",
        "pinyin": "Guangfeng",
        "id": "0793"
    }, {
        "label": "广宁Guangning0758",
        "city": "广宁",
        "pinyin": "Guangning",
        "id": "0758"
    }, {
        "label": "广饶Guangrao0546",
        "city": "广饶",
        "pinyin": "Guangrao",
        "id": "0546"
    }, {
        "label": "光泽Guangze0599",
        "city": "光泽",
        "pinyin": "Guangze",
        "id": "0599"
    }, {
        "label": "灌南Guannan0518",
        "city": "灌南",
        "pinyin": "Guannan",
        "id": "0518"
    }, {
        "label": "冠县Guanxian0635",
        "city": "冠县",
        "pinyin": "Guanxian",
        "id": "0635"
    }, {
        "label": "灌云Guanyun0518",
        "city": "灌云",
        "pinyin": "Guanyun",
        "id": "0518"
    }, {
        "label": "贵溪Guixi0701",
        "city": "贵溪",
        "pinyin": "Guixi",
        "id": "0701"
    }, {
        "label": "古田Gutian0593",
        "city": "古田",
        "pinyin": "Gutian",
        "id": "0593"
    }, {
        "label": "固镇Guzhen0552",
        "city": "固镇",
        "pinyin": "Guzhen",
        "id": "0552"
    }, {
        "label": "海安Haian0513",
        "city": "海安",
        "pinyin": "Haian",
        "id": "0513"
    }, {
        "label": "海丰Haifeng0660",
        "city": "海丰",
        "pinyin": "Haifeng",
        "id": "0660"
    }, {
        "label": "海门Haimen0513",
        "city": "海门",
        "pinyin": "Haimen",
        "id": "0513"
    }, {
        "label": "海宁Haining0573",
        "city": "海宁",
        "pinyin": "Haining",
        "id": "0573"
    }, {
        "label": "海盐Haiyan0573",
        "city": "海盐",
        "pinyin": "Haiyan",
        "id": "0573"
    }, {
        "label": "海阳Haiyang0535",
        "city": "海阳",
        "pinyin": "Haiyang",
        "id": "0535"
    }, {
        "label": "含山Hanshan0565",
        "city": "含山",
        "pinyin": "Hanshan",
        "id": "0565"
    }, {
        "label": "合川Hechuan023",
        "city": "合川",
        "pinyin": "Hechuan",
        "id": "023"
    }, {
        "label": "横峰Hengfeng0793",
        "city": "横峰",
        "pinyin": "Hengfeng",
        "id": "0793"
    }, {
        "label": "和平Heping0762",
        "city": "和平",
        "pinyin": "Heping",
        "id": "0762"
    }, {
        "label": "鹤山Heshan0750",
        "city": "鹤山",
        "pinyin": "Heshan",
        "id": "0750"
    }, {
        "label": "和县Hexian0565",
        "city": "和县",
        "pinyin": "Hexian",
        "id": "0565"
    }, {
        "label": "洪泽Hongze0517",
        "city": "洪泽",
        "pinyin": "Hongze",
        "id": "0517"
    }, {
        "label": "华安Huaan0596",
        "city": "华安",
        "pinyin": "Huaan",
        "id": "0596"
    }, {
        "label": "桦甸Huadian0423",
        "city": "桦甸",
        "pinyin": "Huadian",
        "id": "0423"
    }, {
        "label": "怀集Huaiji0758",
        "city": "怀集",
        "pinyin": "Huaiji",
        "id": "0758"
    }, {
        "label": "怀宁Huaining0556",
        "city": "怀宁",
        "pinyin": "Huaining",
        "id": "0556"
    }, {
        "label": "怀远Huaiyuan0552",
        "city": "怀远",
        "pinyin": "Huaiyuan",
        "id": "0552"
    }, {
        "label": "桓台Huantai0533",
        "city": "桓台",
        "pinyin": "Huantai",
        "id": "0533"
    }, {
        "label": "化州Huazhou0668",
        "city": "化州",
        "pinyin": "Huazhou",
        "id": "0668"
    }, {
        "label": "惠安Huian0595",
        "city": "惠安",
        "pinyin": "Huian",
        "id": "0595"
    }, {
        "label": "会昌Huichang0797",
        "city": "会昌",
        "pinyin": "Huichang",
        "id": "0797"
    }, {
        "label": "惠东Huidong0752",
        "city": "惠东",
        "pinyin": "Huidong",
        "id": "0752"
    }, {
        "label": "惠来Huilai0663",
        "city": "惠来",
        "pinyin": "Huilai",
        "id": "0663"
    }, {
        "label": "惠民Huimin0543",
        "city": "惠民",
        "pinyin": "Huimin",
        "id": "0543"
    }, {
        "label": "湖口Hukou0792",
        "city": "湖口",
        "pinyin": "Hukou",
        "id": "0792"
    }, {
        "label": "呼兰Hulan0451",
        "city": "呼兰",
        "pinyin": "Hulan",
        "id": "0451"
    }, {
        "label": "霍邱Huoqiu0564",
        "city": "霍邱",
        "pinyin": "Huoqiu",
        "id": "0564"
    }, {
        "label": "霍山Huoshan0564",
        "city": "霍山",
        "pinyin": "Huoshan",
        "id": "0564"
    }, {
        "label": "户县Huxian029",
        "city": "户县",
        "pinyin": "Huxian",
        "id": "029"
    }, {
        "label": "建德Jiande0571",
        "city": "建德",
        "pinyin": "Jiande",
        "id": "0571"
    }, {
        "label": "江都Jiangdu0514",
        "city": "江都",
        "pinyin": "Jiangdu",
        "id": "0514"
    }, {
        "label": "江津Jiangjin023",
        "city": "江津",
        "pinyin": "Jiangjin",
        "id": "023"
    }, {
        "label": "将乐Jiangle0598",
        "city": "将乐",
        "pinyin": "Jiangle",
        "id": "0598"
    }, {
        "label": "江山Jiangshan0570",
        "city": "江山",
        "pinyin": "Jiangshan",
        "id": "0570"
    }, {
        "label": "姜堰Jiangyan0523",
        "city": "姜堰",
        "pinyin": "Jiangyan",
        "id": "0523"
    }, {
        "label": "江阴Jiangyin0510",
        "city": "江阴",
        "pinyin": "Jiangyin",
        "id": "0510"
    }, {
        "label": "建湖Jianhu0515",
        "city": "建湖",
        "pinyin": "Jianhu",
        "id": "0515"
    }, {
        "label": "建宁Jianning0598",
        "city": "建宁",
        "pinyin": "Jianning",
        "id": "0598"
    }, {
        "label": "建瓯Jianou0599",
        "city": "建瓯",
        "pinyin": "Jianou",
        "id": "0599"
    }, {
        "label": "建阳Jianyang0599",
        "city": "建阳",
        "pinyin": "Jianyang",
        "id": "0599"
    }, {
        "label": "吉安Jian0796",
        "city": "吉安",
        "pinyin": "Jian",
        "id": "0796"
    }, {
        "label": "蛟河Jiaohe0423",
        "city": "蛟河",
        "pinyin": "Jiaohe",
        "id": "0423"
    }, {
        "label": "蕉岭Jiaoling0753",
        "city": "蕉岭",
        "pinyin": "Jiaoling",
        "id": "0753"
    }, {
        "label": "胶南Jiaonan0532",
        "city": "胶南",
        "pinyin": "Jiaonan",
        "id": "0532"
    }, {
        "label": "胶州Jiaozhou0532",
        "city": "胶州",
        "pinyin": "Jiaozhou",
        "id": "0532"
    }, {
        "label": "嘉善Jiashan0573",
        "city": "嘉善",
        "pinyin": "Jiashan",
        "id": "0573"
    }, {
        "label": "嘉祥Jiaxiang0537",
        "city": "嘉祥",
        "pinyin": "Jiaxiang",
        "id": "0537"
    }, {
        "label": "揭东Jiedong0663",
        "city": "揭东",
        "pinyin": "Jiedong",
        "id": "0663"
    }, {
        "label": "界首Jieshou0558",
        "city": "界首",
        "pinyin": "Jieshou",
        "id": "0558"
    }, {
        "label": "揭西Jiexi0663",
        "city": "揭西",
        "pinyin": "Jiexi",
        "id": "0663"
    }, {
        "label": "即墨Jimo0532",
        "city": "即墨",
        "pinyin": "Jimo",
        "id": "0532"
    }, {
        "label": "靖安Jingan0795",
        "city": "靖安",
        "pinyin": "Jingan",
        "id": "0795"
    }, {
        "label": "旌德Jingde0563",
        "city": "旌德",
        "pinyin": "Jingde",
        "id": "0563"
    }, {
        "label": "井冈山Jinggangshan0796",
        "city": "井冈山",
        "pinyin": "Jinggangshan",
        "id": "0796"
    }, {
        "label": "靖江Jingjiang0523",
        "city": "靖江",
        "pinyin": "Jingjiang",
        "id": "0523"
    }, {
        "label": "景宁Jingning0578",
        "city": "景宁",
        "pinyin": "Jingning",
        "id": "0578"
    }, {
        "label": "泾县Jingxian0563",
        "city": "泾县",
        "pinyin": "Jingxian",
        "id": "0563"
    }, {
        "label": "井陉Jingxing0311",
        "city": "井陉",
        "pinyin": "Jingxing",
        "id": "0311"
    }, {
        "label": "金湖Jinhu0517",
        "city": "金湖",
        "pinyin": "Jinhu",
        "id": "0517"
    }, {
        "label": "晋江Jinjiang0595",
        "city": "晋江",
        "pinyin": "Jinjiang",
        "id": "0595"
    }, {
        "label": "金门Jinmen0595",
        "city": "金门",
        "pinyin": "Jinmen",
        "id": "0595"
    }, {
        "label": "晋宁Jinning0871",
        "city": "晋宁",
        "pinyin": "Jinning",
        "id": "0871"
    }, {
        "label": "金坛Jintan0519",
        "city": "金坛",
        "pinyin": "Jintan",
        "id": "0519"
    }, {
        "label": "金堂Jintang028",
        "city": "金堂",
        "pinyin": "Jintang",
        "id": "028"
    }, {
        "label": "进贤Jinxian0791",
        "city": "进贤",
        "pinyin": "Jinxian",
        "id": "0791"
    }, {
        "label": "金溪Jinxi0794",
        "city": "金溪",
        "pinyin": "Jinxi",
        "id": "0794"
    }, {
        "label": "金乡Jinxiang0537",
        "city": "金乡",
        "pinyin": "Jinxiang",
        "id": "0537"
    }, {
        "label": "缙云Jinyun0578",
        "city": "缙云",
        "pinyin": "Jinyun",
        "id": "0578"
    }, {
        "label": "金寨Jinzhai0564",
        "city": "金寨",
        "pinyin": "Jinzhai",
        "id": "0564"
    }, {
        "label": "晋州Jinzhou0311",
        "city": "晋州",
        "pinyin": "Jinzhou",
        "id": "0311"
    }, {
        "label": "吉水Jishui0796",
        "city": "吉水",
        "pinyin": "Jishui",
        "id": "0796"
    }, {
        "label": "九江Jiujiang0792",
        "city": "九江",
        "pinyin": "Jiujiang",
        "id": "0792"
    }, {
        "label": "九台Jiutai0431",
        "city": "九台",
        "pinyin": "Jiutai",
        "id": "0431"
    }, {
        "label": "绩溪Jixi0563",
        "city": "绩溪",
        "pinyin": "Jixi",
        "id": "0563"
    }, {
        "label": "济阳Jiyang0531",
        "city": "济阳",
        "pinyin": "Jiyang",
        "id": "0531"
    }, {
        "label": "济源Jiyuan0391",
        "city": "济源",
        "pinyin": "Jiyuan",
        "id": "0391"
    }, {
        "label": "鄄城Juancheng0530",
        "city": "鄄城",
        "pinyin": "Juancheng",
        "id": "0530"
    }, {
        "label": "莒南Junan0539",
        "city": "莒南",
        "pinyin": "Junan",
        "id": "0539"
    }, {
        "label": "句容Jurong0511",
        "city": "句容",
        "pinyin": "Jurong",
        "id": "0511"
    }, {
        "label": "莒县Juxian0633",
        "city": "莒县",
        "pinyin": "Juxian",
        "id": "0633"
    }, {
        "label": "巨野Juye0530",
        "city": "巨野",
        "pinyin": "Juye",
        "id": "0530"
    }, {
        "label": "开化Kaihua0570",
        "city": "开化",
        "pinyin": "Kaihua",
        "id": "0570"
    }, {
        "label": "开平Kaiping0750",
        "city": "开平",
        "pinyin": "Kaiping",
        "id": "0750"
    }, {
        "label": "开县Kaixian023",
        "city": "开县",
        "pinyin": "Kaixian",
        "id": "023"
    }, {
        "label": "开阳Kaiyang0851",
        "city": "开阳",
        "pinyin": "Kaiyang",
        "id": "0851"
    }, {
        "label": "康平Kangping024",
        "city": "康平",
        "pinyin": "Kangping",
        "id": "024"
    }, {
        "label": "垦利Kenli0546",
        "city": "垦利",
        "pinyin": "Kenli",
        "id": "0546"
    }, {
        "label": "昆山Kunshan0512",
        "city": "昆山",
        "pinyin": "Kunshan",
        "id": "0512"
    }, {
        "label": "来安Laian0550",
        "city": "来安",
        "pinyin": "Laian",
        "id": "0550"
    }, {
        "label": "莱西Laixi0532",
        "city": "莱西",
        "pinyin": "Laixi",
        "id": "0532"
    }, {
        "label": "莱阳Laiyang0535",
        "city": "莱阳",
        "pinyin": "Laiyang",
        "id": "0535"
    }, {
        "label": "莱州Laizhou0535",
        "city": "莱州",
        "pinyin": "Laizhou",
        "id": "0535"
    }, {
        "label": "郎溪Langxi0563",
        "city": "郎溪",
        "pinyin": "Langxi",
        "id": "0563"
    }, {
        "label": "蓝田Lantian029",
        "city": "蓝田",
        "pinyin": "Lantian",
        "id": "029"
    }, {
        "label": "兰溪Lanxi0579",
        "city": "兰溪",
        "pinyin": "Lanxi",
        "id": "0579"
    }, {
        "label": "乐安Lean0794",
        "city": "乐安",
        "pinyin": "Lean",
        "id": "0794"
    }, {
        "label": "乐昌Lechang0751",
        "city": "乐昌",
        "pinyin": "Lechang",
        "id": "0751"
    }, {
        "label": "雷州Leizhou0759",
        "city": "雷州",
        "pinyin": "Leizhou",
        "id": "0759"
    }, {
        "label": "乐陵Leling0534",
        "city": "乐陵",
        "pinyin": "Leling",
        "id": "0534"
    }, {
        "label": "乐平Leping0798",
        "city": "乐平",
        "pinyin": "Leping",
        "id": "0798"
    }, {
        "label": "乐清Leqing0577",
        "city": "乐清",
        "pinyin": "Leqing",
        "id": "0577"
    }, {
        "label": "乐亭Leting0315",
        "city": "乐亭",
        "pinyin": "Leting",
        "id": "0315"
    }, {
        "label": "连城Liancheng0597",
        "city": "连城",
        "pinyin": "Liancheng",
        "id": "0597"
    }, {
        "label": "梁平Liangping023",
        "city": "梁平",
        "pinyin": "Liangping",
        "id": "023"
    }, {
        "label": "梁山Liangshan0537",
        "city": "梁山",
        "pinyin": "Liangshan",
        "id": "0537"
    }, {
        "label": "莲花Lianhua0799",
        "city": "莲花",
        "pinyin": "Lianhua",
        "id": "0799"
    }, {
        "label": "连江Lianjiang0591",
        "city": "连江",
        "pinyin": "Lianjiang",
        "id": "0591"
    }, {
        "label": "廉江Lianjiang0759",
        "city": "廉江",
        "pinyin": "Lianjiang",
        "id": "0759"
    }, {
        "label": "连南Liannan0763",
        "city": "连南",
        "pinyin": "Liannan",
        "id": "0763"
    }, {
        "label": "连平Lianping0762",
        "city": "连平",
        "pinyin": "Lianping",
        "id": "0762"
    }, {
        "label": "连山Lianshan0763",
        "city": "连山",
        "pinyin": "Lianshan",
        "id": "0763"
    }, {
        "label": "涟水Lianshui0517",
        "city": "涟水",
        "pinyin": "Lianshui",
        "id": "0517"
    }, {
        "label": "连州Lianzhou0763",
        "city": "连州",
        "pinyin": "Lianzhou",
        "id": "0763"
    }, {
        "label": "辽中Liaozhong024",
        "city": "辽中",
        "pinyin": "Liaozhong",
        "id": "024"
    }, {
        "label": "黎川Lichuan0794",
        "city": "黎川",
        "pinyin": "Lichuan",
        "id": "0794"
    }, {
        "label": "利津Lijin0546",
        "city": "利津",
        "pinyin": "Lijin",
        "id": "0546"
    }, {
        "label": "临安Linan0571",
        "city": "临安",
        "pinyin": "Linan",
        "id": "0571"
    }, {
        "label": "灵璧Lingbi0557",
        "city": "灵璧",
        "pinyin": "Lingbi",
        "id": "0557"
    }, {
        "label": "灵寿Lingshou0311",
        "city": "灵寿",
        "pinyin": "Lingshou",
        "id": "0311"
    }, {
        "label": "陵县Lingxian0534",
        "city": "陵县",
        "pinyin": "Lingxian",
        "id": "0534"
    }, {
        "label": "临海Linhai0576",
        "city": "临海",
        "pinyin": "Linhai",
        "id": "0576"
    }, {
        "label": "临清Linqing0635",
        "city": "临清",
        "pinyin": "Linqing",
        "id": "0635"
    }, {
        "label": "临泉Linquan0558",
        "city": "临泉",
        "pinyin": "Linquan",
        "id": "0558"
    }, {
        "label": "临朐Linqu0536",
        "city": "临朐",
        "pinyin": "Linqu",
        "id": "0536"
    }, {
        "label": "临沭Linshu0539",
        "city": "临沭",
        "pinyin": "Linshu",
        "id": "0539"
    }, {
        "label": "临邑Linyi0534",
        "city": "临邑",
        "pinyin": "Linyi",
        "id": "0534"
    }, {
        "label": "溧水Lishui025",
        "city": "溧水",
        "pinyin": "Lishui",
        "id": "025"
    }, {
        "label": "柳城Liucheng0772",
        "city": "柳城",
        "pinyin": "Liucheng",
        "id": "0772"
    }, {
        "label": "柳江Liujiang0772",
        "city": "柳江",
        "pinyin": "Liujiang",
        "id": "0772"
    }, {
        "label": "浏阳Liuyang0731",
        "city": "浏阳",
        "pinyin": "Liuyang",
        "id": "0731"
    }, {
        "label": "利辛Lixin0558",
        "city": "利辛",
        "pinyin": "Lixin",
        "id": "0558"
    }, {
        "label": "溧阳Liyang0519",
        "city": "溧阳",
        "pinyin": "Liyang",
        "id": "0519"
    }, {
        "label": "龙川Longchuan0762",
        "city": "龙川",
        "pinyin": "Longchuan",
        "id": "0762"
    }, {
        "label": "龙海Longhai0596",
        "city": "龙海",
        "pinyin": "Longhai",
        "id": "0596"
    }, {
        "label": "龙口Longkou0535",
        "city": "龙口",
        "pinyin": "Longkou",
        "id": "0535"
    }, {
        "label": "龙门Longmen0752",
        "city": "龙门",
        "pinyin": "Longmen",
        "id": "0752"
    }, {
        "label": "龙南Longnan0797",
        "city": "龙南",
        "pinyin": "Longnan",
        "id": "0797"
    }, {
        "label": "龙泉Longquan0578",
        "city": "龙泉",
        "pinyin": "Longquan",
        "id": "0578"
    }, {
        "label": "龙游Longyou0570",
        "city": "龙游",
        "pinyin": "Longyou",
        "id": "0570"
    }, {
        "label": "栾城Luancheng0311",
        "city": "栾城",
        "pinyin": "Luancheng",
        "id": "0311"
    }, {
        "label": "栾川Luanchuan0379",
        "city": "栾川",
        "pinyin": "Luanchuan",
        "id": "0379"
    }, {
        "label": "滦南Luannan0315",
        "city": "滦南",
        "pinyin": "Luannan",
        "id": "0315"
    }, {
        "label": "滦县Luanxian0315",
        "city": "滦县",
        "pinyin": "Luanxian",
        "id": "0315"
    }, {
        "label": "陆丰Lufeng0660",
        "city": "陆丰",
        "pinyin": "Lufeng",
        "id": "0660"
    }, {
        "label": "陆河Luhe0660",
        "city": "陆河",
        "pinyin": "Luhe",
        "id": "0660"
    }, {
        "label": "庐江Lujiang0565",
        "city": "庐江",
        "pinyin": "Lujiang",
        "id": "0565"
    }, {
        "label": "罗定Luoding0766",
        "city": "罗定",
        "pinyin": "Luoding",
        "id": "0766"
    }, {
        "label": "洛宁Luoning0379",
        "city": "洛宁",
        "pinyin": "Luoning",
        "id": "0379"
    }, {
        "label": "罗源Luoyuan0591",
        "city": "罗源",
        "pinyin": "Luoyuan",
        "id": "0591"
    }, {
        "label": "鹿泉Luquan0311",
        "city": "鹿泉",
        "pinyin": "Luquan",
        "id": "0311"
    }, {
        "label": "禄劝Luquan0871",
        "city": "禄劝",
        "pinyin": "Luquan",
        "id": "0871"
    }, {
        "label": "芦溪Luxi0799",
        "city": "芦溪",
        "pinyin": "Luxi",
        "id": "0799"
    }, {
        "label": "鹿寨Luzhai0772",
        "city": "鹿寨",
        "pinyin": "Luzhai",
        "id": "0772"
    },  {
        "label": "梅县Meixian0753",
        "city": "梅县",
        "pinyin": "Meixian",
        "id": "0753"
    }, {
        "label": "蒙城Mengcheng0558",
        "city": "蒙城",
        "pinyin": "Mengcheng",
        "id": "0558"
    }, {
        "label": "孟津Mengjin0379",
        "city": "孟津",
        "pinyin": "Mengjin",
        "id": "0379"
    }, {
        "label": "蒙阴Mengyin0539",
        "city": "蒙阴",
        "pinyin": "Mengyin",
        "id": "0539"
    }, {
        "label": "孟州Mengzhou0391",
        "city": "孟州",
        "pinyin": "Mengzhou",
        "id": "0391"
    }, {
        "label": "明光Mingguang0550",
        "city": "明光",
        "pinyin": "Mingguang",
        "id": "0550"
    }, {
        "label": "明溪Mingxi0598",
        "city": "明溪",
        "pinyin": "Mingxi",
        "id": "0598"
    }, {
        "label": "闽侯Minhou0591",
        "city": "闽侯",
        "pinyin": "Minhou",
        "id": "0591"
    }, {
        "label": "闽清Minqing0591",
        "city": "闽清",
        "pinyin": "Minqing",
        "id": "0591"
    }, {
        "label": "木兰Mulan0451",
        "city": "木兰",
        "pinyin": "Mulan",
        "id": "0451"
    }, {
        "label": "南安Nanan0595",
        "city": "南安",
        "pinyin": "Nanan",
        "id": "0595"
    }, {
        "label": "南澳Nanao0754",
        "city": "南澳",
        "pinyin": "Nanao",
        "id": "0754"
    }, {
        "label": "南城Nancheng0794",
        "city": "南城",
        "pinyin": "Nancheng",
        "id": "0794"
    }, {
        "label": "南川Nanchuan023",
        "city": "南川",
        "pinyin": "Nanchuan",
        "id": "023"
    }, {
        "label": "南丰Nanfeng0794",
        "city": "南丰",
        "pinyin": "Nanfeng",
        "id": "0794"
    }, {
        "label": "南靖Nanjing0596",
        "city": "南靖",
        "pinyin": "Nanjing",
        "id": "0596"
    }, {
        "label": "南康Nankang0797",
        "city": "南康",
        "pinyin": "Nankang",
        "id": "0797"
    }, {
        "label": "南陵Nanling0553",
        "city": "南陵",
        "pinyin": "Nanling",
        "id": "0553"
    }, {
        "label": "南雄Nanxiong0751",
        "city": "南雄",
        "pinyin": "Nanxiong",
        "id": "0751"
    }, {
        "label": "宁都Ningdu0797",
        "city": "宁都",
        "pinyin": "Ningdu",
        "id": "0797"
    }, {
        "label": "宁国Ningguo0563",
        "city": "宁国",
        "pinyin": "Ningguo",
        "id": "0563"
    }, {
        "label": "宁海Ninghai0574",
        "city": "宁海",
        "pinyin": "Ninghai",
        "id": "0574"
    }, {
        "label": "宁化Ninghua0598",
        "city": "宁化",
        "pinyin": "Ninghua",
        "id": "0598"
    }, {
        "label": "宁津Ningjin0534",
        "city": "宁津",
        "pinyin": "Ningjin",
        "id": "0534"
    }, {
        "label": "宁乡Ningxiang0731",
        "city": "宁乡",
        "pinyin": "Ningxiang",
        "id": "0731"
    }, {
        "label": "宁阳Ningyang0538",
        "city": "宁阳",
        "pinyin": "Ningyang",
        "id": "0538"
    }, {
        "label": "农安Nongan0431",
        "city": "农安",
        "pinyin": "Nongan",
        "id": "0431"
    }, {
        "label": "磐安Panan0579",
        "city": "磐安",
        "pinyin": "Panan",
        "id": "0579"
    }, {
        "label": "磐石Panshi0423",
        "city": "磐石",
        "pinyin": "Panshi",
        "id": "0423"
    }, {
        "label": "沛县Peixian0516",
        "city": "沛县",
        "pinyin": "Peixian",
        "id": "0516"
    }, {
        "label": "蓬莱Penglai0535",
        "city": "蓬莱",
        "pinyin": "Penglai",
        "id": "0535"
    }, {
        "label": "彭水Pengshui023",
        "city": "彭水",
        "pinyin": "Pengshui",
        "id": "023"
    }, {
        "label": "彭泽Pengze0792",
        "city": "彭泽",
        "pinyin": "Pengze",
        "id": "0792"
    }, {
        "label": "彭州Pengzhou028",
        "city": "彭州",
        "pinyin": "Pengzhou",
        "id": "028"
    }, {
        "label": "平度Pingdu0532",
        "city": "平度",
        "pinyin": "Pingdu",
        "id": "0532"
    }, {
        "label": "平和Pinghe0596",
        "city": "平和",
        "pinyin": "Pinghe",
        "id": "0596"
    }, {
        "label": "平湖Pinghu0573",
        "city": "平湖",
        "pinyin": "Pinghu",
        "id": "0573"
    }, {
        "label": "屏南Pingnan0593",
        "city": "屏南",
        "pinyin": "Pingnan",
        "id": "0593"
    }, {
        "label": "平山Pingshan0311",
        "city": "平山",
        "pinyin": "Pingshan",
        "id": "0311"
    }, {
        "label": "平潭Pingtan0591",
        "city": "平潭",
        "pinyin": "Pingtan",
        "id": "0591"
    }, {
        "label": "平阳Pingyang0577",
        "city": "平阳",
        "pinyin": "Pingyang",
        "id": "0577"
    }, {
        "label": "平阴Pingyin0531",
        "city": "平阴",
        "pinyin": "Pingyin",
        "id": "0531"
    }, {
        "label": "平邑Pingyi0539",
        "city": "平邑",
        "pinyin": "Pingyi",
        "id": "0539"
    }, {
        "label": "平原Pingyuan0534",
        "city": "平原",
        "pinyin": "Pingyuan",
        "id": "0534"
    }, {
        "label": "平远Pingyuan0753",
        "city": "平远",
        "pinyin": "Pingyuan",
        "id": "0753"
    }, {
        "label": "郫县Pixian028",
        "city": "郫县",
        "pinyin": "Pixian",
        "id": "028"
    }, {
        "label": "邳州Pizhou0516",
        "city": "邳州",
        "pinyin": "Pizhou",
        "id": "0516"
    }, {
        "label": "鄱阳Poyang0793",
        "city": "鄱阳",
        "pinyin": "Poyang",
        "id": "0793"
    }, {
        "label": "浦城Pucheng0599",
        "city": "浦城",
        "pinyin": "Pucheng",
        "id": "0599"
    }, {
        "label": "浦江Pujiang0579",
        "city": "浦江",
        "pinyin": "Pujiang",
        "id": "0579"
    }, {
        "label": "蒲江Pujiang028",
        "city": "蒲江",
        "pinyin": "Pujiang",
        "id": "028"
    }, {
        "label": "普兰店Pulandian0411",
        "city": "普兰店",
        "pinyin": "Pulandian",
        "id": "0411"
    }, {
        "label": "普宁Puning0663",
        "city": "普宁",
        "pinyin": "Puning",
        "id": "0663"
    }, {
        "label": "迁安Qianan0315",
        "city": "迁安",
        "pinyin": "Qianan",
        "id": "0315"
    }, {
        "label": "潜山Qianshan0556",
        "city": "潜山",
        "pinyin": "Qianshan",
        "id": "0556"
    }, {
        "label": "铅山Qianshan0793",
        "city": "铅山",
        "pinyin": "Qianshan",
        "id": "0793"
    }, {
        "label": "迁西Qianxi0315",
        "city": "迁西",
        "pinyin": "Qianxi",
        "id": "0315"
    }, {
        "label": "启东Qidong0513",
        "city": "启东",
        "pinyin": "Qidong",
        "id": "0513"
    }, {
        "label": "齐河Qihe0534",
        "city": "齐河",
        "pinyin": "Qihe",
        "id": "0534"
    }, {
        "label": "綦江Qijiang023",
        "city": "綦江",
        "pinyin": "Qijiang",
        "id": "023"
    }, {
        "label": "祁门Qimen0559",
        "city": "祁门",
        "pinyin": "Qimen",
        "id": "0559"
    }, {
        "label": "清流Qingliu0598",
        "city": "清流",
        "pinyin": "Qingliu",
        "id": "0598"
    }, {
        "label": "青田Qingtian0578",
        "city": "青田",
        "pinyin": "Qingtian",
        "id": "0578"
    }, {
        "label": "清新Qingxin0763",
        "city": "清新",
        "pinyin": "Qingxin",
        "id": "0763"
    }, {
        "label": "青阳Qingyang0566",
        "city": "青阳",
        "pinyin": "Qingyang",
        "id": "0566"
    }, {
        "label": "庆元Qingyuan0578",
        "city": "庆元",
        "pinyin": "Qingyuan",
        "id": "0578"
    }, {
        "label": "庆云Qingyun0534",
        "city": "庆云",
        "pinyin": "Qingyun",
        "id": "0534"
    }, {
        "label": "清镇Qingzhen0851",
        "city": "清镇",
        "pinyin": "Qingzhen",
        "id": "0851"
    }, {
        "label": "青州Qingzhou0536",
        "city": "青州",
        "pinyin": "Qingzhou",
        "id": "0536"
    }, {
        "label": "沁阳Qinyang0391",
        "city": "沁阳",
        "pinyin": "Qinyang",
        "id": "0391"
    }, {
        "label": "邛崃Qionglai028",
        "city": "邛崃",
        "pinyin": "Qionglai",
        "id": "028"
    }, {
        "label": "栖霞Qixia0535",
        "city": "栖霞",
        "pinyin": "Qixia",
        "id": "0535"
    }, {
        "label": "全椒Quanjiao0550",
        "city": "全椒",
        "pinyin": "Quanjiao",
        "id": "0550"
    }, {
        "label": "全南Quannan0797",
        "city": "全南",
        "pinyin": "Quannan",
        "id": "0797"
    }, {
        "label": "曲阜Qufu0537",
        "city": "曲阜",
        "pinyin": "Qufu",
        "id": "0537"
    }, {
        "label": "曲江Qujiang0751",
        "city": "曲江",
        "pinyin": "Qujiang",
        "id": "0751"
    }, {
        "label": "饶平Raoping0768",
        "city": "饶平",
        "pinyin": "Raoping",
        "id": "0768"
    }, {
        "label": "仁化Renhua0751",
        "city": "仁化",
        "pinyin": "Renhua",
        "id": "0751"
    }, {
        "label": "融安Rongan0772",
        "city": "融安",
        "pinyin": "Rongan",
        "id": "0772"
    }, {
        "label": "荣昌Rongchang023",
        "city": "荣昌",
        "pinyin": "Rongchang",
        "id": "023"
    }, {
        "label": "荣成Rongcheng0631",
        "city": "荣成",
        "pinyin": "Rongcheng",
        "id": "0631"
    }, {
        "label": "融水Rongshui0772",
        "city": "融水",
        "pinyin": "Rongshui",
        "id": "0772"
    }, {
        "label": "如东Rudong0513",
        "city": "如东",
        "pinyin": "Rudong",
        "id": "0513"
    }, {
        "label": "如皋Rugao0513",
        "city": "如皋",
        "pinyin": "Rugao",
        "id": "0513"
    }, {
        "label": "瑞安Ruian0577",
        "city": "瑞安",
        "pinyin": "Ruian",
        "id": "0577"
    }, {
        "label": "瑞昌Ruichang0792",
        "city": "瑞昌",
        "pinyin": "Ruichang",
        "id": "0792"
    }, {
        "label": "瑞金Ruijin0797",
        "city": "瑞金",
        "pinyin": "Ruijin",
        "id": "0797"
    }, {
        "label": "乳山Rushan0631",
        "city": "乳山",
        "pinyin": "Rushan",
        "id": "0631"
    }, {
        "label": "汝阳Ruyang0379",
        "city": "汝阳",
        "pinyin": "Ruyang",
        "id": "0379"
    }, {
        "label": "乳源Ruyuan0751",
        "city": "乳源",
        "pinyin": "Ruyuan",
        "id": "0751"
    }, {
        "label": "三江Sanjiang0772",
        "city": "三江",
        "pinyin": "Sanjiang",
        "id": "0772"
    }, {
        "label": "三门Sanmen0576",
        "city": "三门",
        "pinyin": "Sanmen",
        "id": "0576"
    }, {
        "label": "诏安Saoan0596",
        "city": "诏安",
        "pinyin": "Saoan",
        "id": "0596"
    }, {
        "label": "上高Shanggao0795",
        "city": "上高",
        "pinyin": "Shanggao",
        "id": "0795"
    }, {
        "label": "上杭Shanghang0597",
        "city": "上杭",
        "pinyin": "Shanghang",
        "id": "0597"
    }, {
        "label": "商河Shanghe0531",
        "city": "商河",
        "pinyin": "Shanghe",
        "id": "0531"
    }, {
        "label": "上栗Shangli0799",
        "city": "上栗",
        "pinyin": "Shangli",
        "id": "0799"
    },  {
        "label": "上饶Shangrao0793",
        "city": "上饶",
        "pinyin": "Shangrao",
        "id": "0793"
    }, {
        "label": "上犹Shangyou0797",
        "city": "上犹",
        "pinyin": "Shangyou",
        "id": "0797"
    }, {
        "label": "上虞Shangyu0575",
        "city": "上虞",
        "pinyin": "Shangyu",
        "id": "0575"
    }, {
        "label": "尚志Shangzhi0451",
        "city": "尚志",
        "pinyin": "Shangzhi",
        "id": "0451"
    }, {
        "label": "邵武Shaowu0599",
        "city": "邵武",
        "pinyin": "Shaowu",
        "id": "0599"
    }, {
        "label": "绍兴Shaoxing0575",
        "city": "绍兴",
        "pinyin": "Shaoxing",
        "id": "0575"
    }, {
        "label": "沙县Shaxian0598",
        "city": "沙县",
        "pinyin": "Shaxian",
        "id": "0598"
    }, {
        "label": "嵊泗Shengsi0580",
        "city": "嵊泗",
        "pinyin": "Shengsi",
        "id": "0580"
    }, {
        "label": "嵊州Shengzhou0575",
        "city": "嵊州",
        "pinyin": "Shengzhou",
        "id": "0575"
    }, {
        "label": "莘县Shenxian0635",
        "city": "莘县",
        "pinyin": "Shenxian",
        "id": "0635"
    }, {
        "label": "深泽Shenze0311",
        "city": "深泽",
        "pinyin": "Shenze",
        "id": "0311"
    }, {
        "label": "歙县Shexian0559",
        "city": "歙县",
        "pinyin": "Shexian",
        "id": "0559"
    }, {
        "label": "射阳Sheyang0515",
        "city": "射阳",
        "pinyin": "Sheyang",
        "id": "0515"
    }, {
        "label": "石城Shicheng0797",
        "city": "石城",
        "pinyin": "Shicheng",
        "id": "0797"
    }, {
        "label": "石林Shilin0871",
        "city": "石林",
        "pinyin": "Shilin",
        "id": "0871"
    }, {
        "label": "石狮Shishi0595",
        "city": "石狮",
        "pinyin": "Shishi",
        "id": "0595"
    }, {
        "label": "石台Shitai0566",
        "city": "石台",
        "pinyin": "Shitai",
        "id": "0566"
    }, {
        "label": "始兴Shixing0751",
        "city": "始兴",
        "pinyin": "Shixing",
        "id": "0751"
    }, {
        "label": "石柱Shizhu023",
        "city": "石柱",
        "pinyin": "Shizhu",
        "id": "023"
    }, {
        "label": "寿光Shouguang0536",
        "city": "寿光",
        "pinyin": "Shouguang",
        "id": "0536"
    }, {
        "label": "寿宁Shouning0593",
        "city": "寿宁",
        "pinyin": "Shouning",
        "id": "0593"
    }, {
        "label": "寿县Shouxian0564",
        "city": "寿县",
        "pinyin": "Shouxian",
        "id": "0564"
    }, {
        "label": "双城Shuangcheng0451",
        "city": "双城",
        "pinyin": "Shuangcheng",
        "id": "0451"
    }, {
        "label": "双流Shuangliu028",
        "city": "双流",
        "pinyin": "Shuangliu",
        "id": "028"
    }, {
        "label": "舒城Shucheng0564",
        "city": "舒城",
        "pinyin": "Shucheng",
        "id": "0564"
    }, {
        "label": "舒兰Shulan0423",
        "city": "舒兰",
        "pinyin": "Shulan",
        "id": "0423"
    }, {
        "label": "顺昌Shunchang0599",
        "city": "顺昌",
        "pinyin": "Shunchang",
        "id": "0599"
    }, {
        "label": "沭阳Shuyang0527",
        "city": "沭阳",
        "pinyin": "Shuyang",
        "id": "0527"
    }, {
        "label": "泗洪Sihong0527",
        "city": "泗洪",
        "pinyin": "Sihong",
        "id": "0527"
    }, {
        "label": "四会Sihui0758",
        "city": "四会",
        "pinyin": "Sihui",
        "id": "0758"
    }, {
        "label": "泗水Sishui0537",
        "city": "泗水",
        "pinyin": "Sishui",
        "id": "0537"
    }, {
        "label": "泗县Sixian0557",
        "city": "泗县",
        "pinyin": "Sixian",
        "id": "0557"
    }, {
        "label": "泗阳Siyang0527",
        "city": "泗阳",
        "pinyin": "Siyang",
        "id": "0527"
    }, {
        "label": "嵩明Songming0871",
        "city": "嵩明",
        "pinyin": "Songming",
        "id": "0871"
    }, {
        "label": "松溪Songxi0599",
        "city": "松溪",
        "pinyin": "Songxi",
        "id": "0599"
    }, {
        "label": "嵩县Songxian0379",
        "city": "嵩县",
        "pinyin": "Songxian",
        "id": "0379"
    }, {
        "label": "松阳Songyang0578",
        "city": "松阳",
        "pinyin": "Songyang",
        "id": "0578"
    }, {
        "label": "遂昌Suichang0578",
        "city": "遂昌",
        "pinyin": "Suichang",
        "id": "0578"
    }, {
        "label": "遂川Suichuan0796",
        "city": "遂川",
        "pinyin": "Suichuan",
        "id": "0796"
    }, {
        "label": "睢宁Suining0516",
        "city": "睢宁",
        "pinyin": "Suining",
        "id": "0516"
    }, {
        "label": "濉溪Suixi0561",
        "city": "濉溪",
        "pinyin": "Suixi",
        "id": "0561"
    }, {
        "label": "遂溪Suixi0759",
        "city": "遂溪",
        "pinyin": "Suixi",
        "id": "0759"
    }, {
        "label": "宿松Susong0556",
        "city": "宿松",
        "pinyin": "Susong",
        "id": "0556"
    }, {
        "label": "宿豫Suyu0527",
        "city": "宿豫",
        "pinyin": "Suyu",
        "id": "0527"
    }, {
        "label": "太仓Taicang0512",
        "city": "太仓",
        "pinyin": "Taicang",
        "id": "0512"
    }, {
        "label": "太和Taihe0558",
        "city": "太和",
        "pinyin": "Taihe",
        "id": "0558"
    }, {
        "label": "泰和Taihe0796",
        "city": "泰和",
        "pinyin": "Taihe",
        "id": "0796"
    }, {
        "label": "太湖Taihu0556",
        "city": "太湖",
        "pinyin": "Taihu",
        "id": "0556"
    }, {
        "label": "泰宁Taining0598",
        "city": "泰宁",
        "pinyin": "Taining",
        "id": "0598"
    }, {
        "label": "台山Taishan0750",
        "city": "台山",
        "pinyin": "Taishan",
        "id": "0750"
    }, {
        "label": "泰顺Taishun0577",
        "city": "泰顺",
        "pinyin": "Taishun",
        "id": "0577"
    }, {
        "label": "泰兴Taixing0523",
        "city": "泰兴",
        "pinyin": "Taixing",
        "id": "0523"
    }, {
        "label": "郯城Tancheng0539",
        "city": "郯城",
        "pinyin": "Tancheng",
        "id": "0539"
    }, {
        "label": "唐海Tanghai0315",
        "city": "唐海",
        "pinyin": "Tanghai",
        "id": "0315"
    }, {
        "label": "滕州Tengzhou0623",
        "city": "滕州",
        "pinyin": "Tengzhou",
        "id": "0623"
    }, {
        "label": "天长Tianchang0550",
        "city": "天长",
        "pinyin": "Tianchang",
        "id": "0550"
    }, {
        "label": "天台Tiantai0576",
        "city": "天台",
        "pinyin": "Tiantai",
        "id": "0576"
    }, {
        "label": "桐城Tongcheng0556",
        "city": "桐城",
        "pinyin": "Tongcheng",
        "id": "0556"
    }, {
        "label": "铜鼓Tonggu0795",
        "city": "铜鼓",
        "pinyin": "Tonggu",
        "id": "0795"
    }, {
        "label": "通河Tonghe0451",
        "city": "通河",
        "pinyin": "Tonghe",
        "id": "0451"
    }, {
        "label": "铜梁Tongliang023",
        "city": "铜梁",
        "pinyin": "Tongliang",
        "id": "023"
    }, {
        "label": "铜陵Tongling0562",
        "city": "铜陵",
        "pinyin": "Tongling",
        "id": "0562"
    }, {
        "label": "桐庐Tonglu0571",
        "city": "桐庐",
        "pinyin": "Tonglu",
        "id": "0571"
    }, {
        "label": "潼南Tongnan023",
        "city": "潼南",
        "pinyin": "Tongnan",
        "id": "023"
    }, {
        "label": "铜山Tongshan0516",
        "city": "铜山",
        "pinyin": "Tongshan",
        "id": "0516"
    }, {
        "label": "桐乡Tongxiang0573",
        "city": "桐乡",
        "pinyin": "Tongxiang",
        "id": "0573"
    }, {
        "label": "通州Tongzhou0513",
        "city": "通州",
        "pinyin": "Tongzhou",
        "id": "0513"
    }, {
        "label": "瓦房店Wafangdian0411",
        "city": "瓦房店",
        "pinyin": "Wafangdian",
        "id": "0411"
    }, {
        "label": "万安Wanan0796",
        "city": "万安",
        "pinyin": "Wanan",
        "id": "0796"
    }, {
        "label": "望城Wangcheng0731",
        "city": "望城",
        "pinyin": "Wangcheng",
        "id": "0731"
    }, {
        "label": "望江Wangjiang0556",
        "city": "望江",
        "pinyin": "Wangjiang",
        "id": "0556"
    }, {
        "label": "万年Wannian0793",
        "city": "万年",
        "pinyin": "Wannian",
        "id": "0793"
    }, {
        "label": "万载Wanzai0795",
        "city": "万载",
        "pinyin": "Wanzai",
        "id": "0795"
    }, {
        "label": "微山Weishan0537",
        "city": "微山",
        "pinyin": "Weishan",
        "id": "0537"
    }, {
        "label": "文成Wencheng0577",
        "city": "文成",
        "pinyin": "Wencheng",
        "id": "0577"
    }, {
        "label": "文登Wendeng0631",
        "city": "文登",
        "pinyin": "Wendeng",
        "id": "0631"
    }, {
        "label": "翁源Wengyuan0751",
        "city": "翁源",
        "pinyin": "Wengyuan",
        "id": "0751"
    }, {
        "label": "温岭Wenling0576",
        "city": "温岭",
        "pinyin": "Wenling",
        "id": "0576"
    }, {
        "label": "汶上Wenshang0537",
        "city": "汶上",
        "pinyin": "Wenshang",
        "id": "0537"
    }, {
        "label": "温县Wenxian0391",
        "city": "温县",
        "pinyin": "Wenxian",
        "id": "0391"
    }, {
        "label": "涡阳Woyang0558",
        "city": "涡阳",
        "pinyin": "Woyang",
        "id": "0558"
    }, {
        "label": "五常Wuchang0451",
        "city": "五常",
        "pinyin": "Wuchang",
        "id": "0451"
    }, {
        "label": "武城Wucheng0534",
        "city": "武城",
        "pinyin": "Wucheng",
        "id": "0534"
    }, {
        "label": "吴川Wuchuan0759",
        "city": "吴川",
        "pinyin": "Wuchuan",
        "id": "0759"
    }, {
        "label": "无棣Wudi0543",
        "city": "无棣",
        "pinyin": "Wudi",
        "id": "0543"
    }, {
        "label": "五河Wuhe0552",
        "city": "五河",
        "pinyin": "Wuhe",
        "id": "0552"
    }, {
        "label": "芜湖Wuhu0553",
        "city": "芜湖",
        "pinyin": "Wuhu",
        "id": "0553"
    }, {
        "label": "五华Wuhua0753",
        "city": "五华",
        "pinyin": "Wuhua",
        "id": "0753"
    }, {
        "label": "无极Wuji0311",
        "city": "无极",
        "pinyin": "Wuji",
        "id": "0311"
    }, {
        "label": "吴江Wujiang0512",
        "city": "吴江",
        "pinyin": "Wujiang",
        "id": "0512"
    }, {
        "label": "五莲Wulian0633",
        "city": "五莲",
        "pinyin": "Wulian",
        "id": "0633"
    }, {
        "label": "武隆Wulong023",
        "city": "武隆",
        "pinyin": "Wulong",
        "id": "023"
    },  {
        "label": "武宁Wuning0792",
        "city": "武宁",
        "pinyin": "Wuning",
        "id": "0792"
    }, {
        "label": "武平Wuping0597",
        "city": "武平",
        "pinyin": "Wuping",
        "id": "0597"
    }, {
        "label": "巫山Wushan023",
        "city": "巫山",
        "pinyin": "Wushan",
        "id": "023"
    }, {
        "label": "无为Wuwei0565",
        "city": "无为",
        "pinyin": "Wuwei",
        "id": "0565"
    }, {
        "label": "巫溪Wuxi023",
        "city": "巫溪",
        "pinyin": "Wuxi",
        "id": "023"
    }, {
        "label": "武义Wuyi0579",
        "city": "武义",
        "pinyin": "Wuyi",
        "id": "0579"
    }, {
        "label": "武夷山Wuyishan0599",
        "city": "武夷山",
        "pinyin": "Wuyishan",
        "id": "0599"
    }, {
        "label": "婺源Wuyuan0793",
        "city": "婺源",
        "pinyin": "Wuyuan",
        "id": "0793"
    }, {
        "label": "武陟Wuzhi0391",
        "city": "武陟",
        "pinyin": "Wuzhi",
        "id": "0391"
    }, {
        "label": "峡江Xiajiang0796",
        "city": "峡江",
        "pinyin": "Xiajiang",
        "id": "0796"
    }, {
        "label": "夏津Xiajin0534",
        "city": "夏津",
        "pinyin": "Xiajin",
        "id": "0534"
    }, {
        "label": "象山Xiangshan0574",
        "city": "象山",
        "pinyin": "Xiangshan",
        "id": "0574"
    }, {
        "label": "响水Xiangshui0515",
        "city": "响水",
        "pinyin": "Xiangshui",
        "id": "0515"
    }, {
        "label": "仙居Xianju0576",
        "city": "仙居",
        "pinyin": "Xianju",
        "id": "0576"
    }, {
        "label": "仙游Xianyou0594",
        "city": "仙游",
        "pinyin": "Xianyou",
        "id": "0594"
    }, {
        "label": "萧县Xiaoxian0557",
        "city": "萧县",
        "pinyin": "Xiaoxian",
        "id": "0557"
    }, {
        "label": "霞浦Xiapu0593",
        "city": "霞浦",
        "pinyin": "Xiapu",
        "id": "0593"
    }, {
        "label": "息烽Xifeng0851",
        "city": "息烽",
        "pinyin": "Xifeng",
        "id": "0851"
    }, {
        "label": "新安Xinan0379",
        "city": "新安",
        "pinyin": "Xinan",
        "id": "0379"
    }, {
        "label": "新昌Xinchang0575",
        "city": "新昌",
        "pinyin": "Xinchang",
        "id": "0575"
    }, {
        "label": "信丰Xinfeng0797",
        "city": "信丰",
        "pinyin": "Xinfeng",
        "id": "0797"
    }, {
        "label": "新丰Xinfeng0751",
        "city": "新丰",
        "pinyin": "Xinfeng",
        "id": "0751"
    }, {
        "label": "新干Xingan0796",
        "city": "新干",
        "pinyin": "Xingan",
        "id": "0796"
    }, {
        "label": "兴国Xingguo0797",
        "city": "兴国",
        "pinyin": "Xingguo",
        "id": "0797"
    }, {
        "label": "兴化Xinghua0523",
        "city": "兴化",
        "pinyin": "Xinghua",
        "id": "0523"
    }, {
        "label": "兴宁Xingning0753",
        "city": "兴宁",
        "pinyin": "Xingning",
        "id": "0753"
    }, {
        "label": "行唐Xingtang0311",
        "city": "行唐",
        "pinyin": "Xingtang",
        "id": "0311"
    }, {
        "label": "荥阳Xingyang0371",
        "city": "荥阳",
        "pinyin": "Xingyang",
        "id": "0371"
    }, {
        "label": "星子Xingzi0792",
        "city": "星子",
        "pinyin": "Xingzi",
        "id": "0792"
    }, {
        "label": "辛集Xinji0311",
        "city": "辛集",
        "pinyin": "Xinji",
        "id": "0311"
    }, {
        "label": "新建Xinjian0791",
        "city": "新建",
        "pinyin": "Xinjian",
        "id": "0791"
    }, {
        "label": "新津Xinjin028",
        "city": "新津",
        "pinyin": "Xinjin",
        "id": "028"
    }, {
        "label": "新乐Xinle0311",
        "city": "新乐",
        "pinyin": "Xinle",
        "id": "0311"
    }, {
        "label": "新民Xinmin024",
        "city": "新民",
        "pinyin": "Xinmin",
        "id": "024"
    }, {
        "label": "新密Xinmi0371",
        "city": "新密",
        "pinyin": "Xinmi",
        "id": "0371"
    }, {
        "label": "新泰Xintai0538",
        "city": "新泰",
        "pinyin": "Xintai",
        "id": "0538"
    }, {
        "label": "新兴Xinxing0766",
        "city": "新兴",
        "pinyin": "Xinxing",
        "id": "0766"
    }, {
        "label": "新沂Xinyi0516",
        "city": "新沂",
        "pinyin": "Xinyi",
        "id": "0516"
    }, {
        "label": "信宜Xinyi0668",
        "city": "信宜",
        "pinyin": "Xinyi",
        "id": "0668"
    }, {
        "label": "新郑Xinzheng0371",
        "city": "新郑",
        "pinyin": "Xinzheng",
        "id": "0371"
    }, {
        "label": "休宁Xiuning0559",
        "city": "休宁",
        "pinyin": "Xiuning",
        "id": "0559"
    }, {
        "label": "秀山Xiushan023",
        "city": "秀山",
        "pinyin": "Xiushan",
        "id": "023"
    }, {
        "label": "修水Xiushui0792",
        "city": "修水",
        "pinyin": "Xiushui",
        "id": "0792"
    }, {
        "label": "修文Xiuwen0851",
        "city": "修文",
        "pinyin": "Xiuwen",
        "id": "0851"
    }, {
        "label": "修武Xiuwu0391",
        "city": "修武",
        "pinyin": "Xiuwu",
        "id": "0391"
    }, {
        "label": "寻甸Xundian0871",
        "city": "寻甸",
        "pinyin": "Xundian",
        "id": "0871"
    }, {
        "label": "寻乌Xunwu0797",
        "city": "寻乌",
        "pinyin": "Xunwu",
        "id": "0797"
    }, {
        "label": "徐闻Xuwen0759",
        "city": "徐闻",
        "pinyin": "Xuwen",
        "id": "0759"
    }, {
        "label": "盱眙Xuyi0517",
        "city": "盱眙",
        "pinyin": "Xuyi",
        "id": "0517"
    }, {
        "label": "阳春Yangchun0662",
        "city": "阳春",
        "pinyin": "Yangchun",
        "id": "0662"
    }, {
        "label": "阳东Yangdong0662",
        "city": "阳东",
        "pinyin": "Yangdong",
        "id": "0662"
    }, {
        "label": "阳谷Yanggu0635",
        "city": "阳谷",
        "pinyin": "Yanggu",
        "id": "0635"
    }, {
        "label": "阳山Yangshan0763",
        "city": "阳山",
        "pinyin": "Yangshan",
        "id": "0763"
    }, {
        "label": "阳信Yangxin0543",
        "city": "阳信",
        "pinyin": "Yangxin",
        "id": "0543"
    }, {
        "label": "阳西Yangxi0662",
        "city": "阳西",
        "pinyin": "Yangxi",
        "id": "0662"
    }, {
        "label": "扬中Yangzhong0511",
        "city": "扬中",
        "pinyin": "Yangzhong",
        "id": "0511"
    }, {
        "label": "偃师Yanshi0379",
        "city": "偃师",
        "pinyin": "Yanshi",
        "id": "0379"
    }, {
        "label": "延寿Yanshou0451",
        "city": "延寿",
        "pinyin": "Yanshou",
        "id": "0451"
    }, {
        "label": "兖州Yanzhou0537",
        "city": "兖州",
        "pinyin": "Yanzhou",
        "id": "0537"
    }, {
        "label": "伊川Yichuan0379",
        "city": "伊川",
        "pinyin": "Yichuan",
        "id": "0379"
    }, {
        "label": "宜丰Yifeng0795",
        "city": "宜丰",
        "pinyin": "Yifeng",
        "id": "0795"
    }, {
        "label": "宜黄Yihuang0794",
        "city": "宜黄",
        "pinyin": "Yihuang",
        "id": "0794"
    }, {
        "label": "依兰Yilan0451",
        "city": "依兰",
        "pinyin": "Yilan",
        "id": "0451"
    }, {
        "label": "宜良Yiliang0871",
        "city": "宜良",
        "pinyin": "Yiliang",
        "id": "0871"
    }, {
        "label": "沂南Yinan0539",
        "city": "沂南",
        "pinyin": "Yinan",
        "id": "0539"
    }, {
        "label": "英德Yingde0763",
        "city": "英德",
        "pinyin": "Yingde",
        "id": "0763"
    }, {
        "label": "颍上Yingshang0558",
        "city": "颍上",
        "pinyin": "Yingshang",
        "id": "0558"
    }, {
        "label": "沂水Yishui0539",
        "city": "沂水",
        "pinyin": "Yishui",
        "id": "0539"
    }, {
        "label": "义乌Yiwu0579",
        "city": "义乌",
        "pinyin": "Yiwu",
        "id": "0579"
    }, {
        "label": "黟县Yixian0559",
        "city": "黟县",
        "pinyin": "Yixian",
        "id": "0559"
    }, {
        "label": "宜兴Yixing0510",
        "city": "宜兴",
        "pinyin": "Yixing",
        "id": "0510"
    }, {
        "label": "弋阳Yiyang0793",
        "city": "弋阳",
        "pinyin": "Yiyang",
        "id": "0793"
    }, {
        "label": "宜阳Yiyang0379",
        "city": "宜阳",
        "pinyin": "Yiyang",
        "id": "0379"
    }, {
        "label": "沂源Yiyuan0533",
        "city": "沂源",
        "pinyin": "Yiyuan",
        "id": "0533"
    }, {
        "label": "仪征Yizheng0514",
        "city": "仪征",
        "pinyin": "Yizheng",
        "id": "0514"
    }, {
        "label": "永安Yongan0598",
        "city": "永安",
        "pinyin": "Yongan",
        "id": "0598"
    }, {
        "label": "永川Yongchuan023",
        "city": "永川",
        "pinyin": "Yongchuan",
        "id": "023"
    }, {
        "label": "永春Yongchun0595",
        "city": "永春",
        "pinyin": "Yongchun",
        "id": "0595"
    }, {
        "label": "永登Yongdeng0931",
        "city": "永登",
        "pinyin": "Yongdeng",
        "id": "0931"
    }, {
        "label": "永定Yongding0597",
        "city": "永定",
        "pinyin": "Yongding",
        "id": "0597"
    }, {
        "label": "永丰Yongfeng0796",
        "city": "永丰",
        "pinyin": "Yongfeng",
        "id": "0796"
    }, {
        "label": "永吉Yongji0423",
        "city": "永吉",
        "pinyin": "Yongji",
        "id": "0423"
    }, {
        "label": "永嘉Yongjia0577",
        "city": "永嘉",
        "pinyin": "Yongjia",
        "id": "0577"
    }, {
        "label": "永康Yongkang0579",
        "city": "永康",
        "pinyin": "Yongkang",
        "id": "0579"
    },  {
        "label": "永泰Yongtai0591",
        "city": "永泰",
        "pinyin": "Yongtai",
        "id": "0591"
    }, {
        "label": "永新Yongxin0796",
        "city": "永新",
        "pinyin": "Yongxin",
        "id": "0796"
    }, {
        "label": "永修Yongxiu0792",
        "city": "永修",
        "pinyin": "Yongxiu",
        "id": "0792"
    }, {
        "label": "尤溪Youxi0598",
        "city": "尤溪",
        "pinyin": "Youxi",
        "id": "0598"
    }, {
        "label": "酉阳Youyang023",
        "city": "酉阳",
        "pinyin": "Youyang",
        "id": "023"
    }, {
        "label": "元氏Yuanshi0311",
        "city": "元氏",
        "pinyin": "Yuanshi",
        "id": "0311"
    }, {
        "label": "禹城Yucheng0534",
        "city": "禹城",
        "pinyin": "Yucheng",
        "id": "0534"
    }, {
        "label": "于都Yudu0797",
        "city": "于都",
        "pinyin": "Yudu",
        "id": "0797"
    }, {
        "label": "岳西Yuexi0556",
        "city": "岳西",
        "pinyin": "Yuexi",
        "id": "0556"
    }, {
        "label": "余干Yugan0793",
        "city": "余干",
        "pinyin": "Yugan",
        "id": "0793"
    }, {
        "label": "玉环Yuhuan0576",
        "city": "玉环",
        "pinyin": "Yuhuan",
        "id": "0576"
    }, {
        "label": "余江Yujiang0701",
        "city": "余江",
        "pinyin": "Yujiang",
        "id": "0701"
    }, {
        "label": "郁南Yunan0766",
        "city": "郁南",
        "pinyin": "Yunan",
        "id": "0766"
    }, {
        "label": "云安Yunan0766",
        "city": "云安",
        "pinyin": "Yunan",
        "id": "0766"
    }, {
        "label": "郓城Yuncheng0530",
        "city": "郓城",
        "pinyin": "Yuncheng",
        "id": "0530"
    }, {
        "label": "云和Yunhe0578",
        "city": "云和",
        "pinyin": "Yunhe",
        "id": "0578"
    }, {
        "label": "云霄Yunxiao0596",
        "city": "云霄",
        "pinyin": "Yunxiao",
        "id": "0596"
    }, {
        "label": "云阳Yunyang023",
        "city": "云阳",
        "pinyin": "Yunyang",
        "id": "023"
    }, {
        "label": "玉山Yushan0793",
        "city": "玉山",
        "pinyin": "Yushan",
        "id": "0793"
    }, {
        "label": "榆树Yushu0431",
        "city": "榆树",
        "pinyin": "Yushu",
        "id": "0431"
    }, {
        "label": "鱼台Yutai0537",
        "city": "鱼台",
        "pinyin": "Yutai",
        "id": "0537"
    }, {
        "label": "玉田Yutian0315",
        "city": "玉田",
        "pinyin": "Yutian",
        "id": "0315"
    }, {
        "label": "余姚Yuyao0574",
        "city": "余姚",
        "pinyin": "Yuyao",
        "id": "0574"
    }, {
        "label": "榆中Yuzhong0931",
        "city": "榆中",
        "pinyin": "Yuzhong",
        "id": "0931"
    }, {
        "label": "赞皇Zanhuang0311",
        "city": "赞皇",
        "pinyin": "Zanhuang",
        "id": "0311"
    }, {
        "label": "增城Zengcheng020",
        "city": "增城",
        "pinyin": "Zengcheng",
        "id": "020"
    }, {
        "label": "张家港Zhangjiagang0512",
        "city": "张家港",
        "pinyin": "Zhangjiagang",
        "id": "0512"
    }, {
        "label": "漳平Zhangping0597",
        "city": "漳平",
        "pinyin": "Zhangping",
        "id": "0597"
    }, {
        "label": "漳浦Zhangpu0596",
        "city": "漳浦",
        "pinyin": "Zhangpu",
        "id": "0596"
    }, {
        "label": "章丘Zhangqiu0531",
        "city": "章丘",
        "pinyin": "Zhangqiu",
        "id": "0531"
    }, {
        "label": "樟树Zhangshu0795",
        "city": "樟树",
        "pinyin": "Zhangshu",
        "id": "0795"
    }, {
        "label": "沾化Zhanhua0543",
        "city": "沾化",
        "pinyin": "Zhanhua",
        "id": "0543"
    }, {
        "label": "赵县Zhaoxian0311",
        "city": "赵县",
        "pinyin": "Zhaoxian",
        "id": "0311"
    }, {
        "label": "招远Zhaoyuan0535",
        "city": "招远",
        "pinyin": "Zhaoyuan",
        "id": "0535"
    }, {
        "label": "正定Zhengding0311",
        "city": "正定",
        "pinyin": "Zhengding",
        "id": "0311"
    }, {
        "label": "政和Zhenghe0599",
        "city": "政和",
        "pinyin": "Zhenghe",
        "id": "0599"
    }, {
        "label": "柘荣Zherong0593",
        "city": "柘荣",
        "pinyin": "Zherong",
        "id": "0593"
    }, {
        "label": "中牟Zhongmou0371",
        "city": "中牟",
        "pinyin": "Zhongmou",
        "id": "0371"
    }, {
        "label": "忠县Zhongxian023",
        "city": "忠县",
        "pinyin": "Zhongxian",
        "id": "023"
    }, {
        "label": "周宁Zhouning0593",
        "city": "周宁",
        "pinyin": "Zhouning",
        "id": "0593"
    }, {
        "label": "周至Zhouzhi029",
        "city": "周至",
        "pinyin": "Zhouzhi",
        "id": "029"
    }, {
        "label": "庄河Zhuanghe0411",
        "city": "庄河",
        "pinyin": "Zhuanghe",
        "id": "0411"
    }, {
        "label": "诸城Zhucheng0536",
        "city": "诸城",
        "pinyin": "Zhucheng",
        "id": "0536"
    }, {
        "label": "诸暨Zhuji0575",
        "city": "诸暨",
        "pinyin": "Zhuji",
        "id": "0575"
    }, {
        "label": "紫金Zijin0762",
        "city": "紫金",
        "pinyin": "Zijin",
        "id": "0762"
    }, {
        "label": "资溪Zixi0794",
        "city": "资溪",
        "pinyin": "Zixi",
        "id": "0794"
    }, {
        "label": "邹城Zoucheng0537",
        "city": "邹城",
        "pinyin": "Zoucheng",
        "id": "0537"
    }, {
        "label": "邹平Zouping0543",
        "city": "邹平",
        "pinyin": "Zouping",
        "id": "0543"
    }, {
        "label": "遵化Zunhua0315",
        "city": "遵化",
        "pinyin": "Zunhua",
        "id": "0315"
    }]
}
